Nombre,Cámara de Comercio,Número de Matrícula,Fecha de Matrícula,Estado de la matrícula,Fecha de renovación,Último año renovado,latitud,longitud,direccion,latitud,longitud,direccion
TIENDA ARA 0058 DOSQUEBRADAS ESTACION ACUARELA,DOSQUEBRADAS,45313,2014/09/18,ACTIVA,2025/03/20,2025,,,,,,
TIENDA ARA 0144 MAGANGUE CORDOBA,MAGANGUE,37323,2015/11/17,ACTIVA,2025/03/20,2025,,,,,,
TIENDA ARA 0150 CIENAGA CALLE 17,SANTA MARTA PARA EL MAGDALENA,173164,2015/11/24,ACTIVA,2025/03/21,2025,,,,,,
TIENDA ARA 0153 SANTA MARTA BAVARIA,SANTA MARTA PARA EL MAGDALENA,173054,2015/11/19,ACTIVA,2025/03/21,2025,,,,,,
TIENDA ARA 0154 SAN LORENZO,SANTA MARTA PARA EL MAGDALENA,175881,2016/03/09,ACTIVA,2025/03/21,2025,,,,,,
TIENDA ARA 0162 SANTA MARTA ALCAZARES,SANTA MARTA PARA EL MAGDALENA,178552,2016/06/15,ACTIVA,2025/03/21,2025,,,,,,
TIENDA ARA 0193 SAN ONOFRE CENTRO,SINCELEJO,93235,2016/08/16,ACTIVA,2025/03/21,2025,9.316629599999999,-75.3925927,"Cra. 18 #55, Sincelejo, Sucre, Colombia",9.316629599999999,-75.3925927,"Cra. 18 #55, Sincelejo, Sucre, Colombia"
TIENDA ARA 0197 SANTA MARTA MIRAFLORES,SANTA MARTA PARA EL MAGDALENA,180428,2016/08/16,ACTIVA,2025/03/21,2025,,,,,,
TIENDA ARA 0200 PIVIJAY,SANTA MARTA PARA EL MAGDALENA,180420,2016/08/16,ACTIVA,2025/03/21,2025,,,,,,
TIENDA ARA 0214 SANTA MARTA LA QUINTA,SANTA MARTA PARA EL MAGDALENA,181110,2016/09/07,ACTIVA,2025/03/21,2025,,,,,,
TIENDA ARA 0218 MADRID CALLE 7,FACATATIVA,104105,2016/09/08,ACTIVA,2025/03/26,2025,,,,,,
TIENDA ARA 0218 MADRID CALLE 7,FACATATIVA,112907,2017/08/17,CANCELADA,2017/08/17,2017,,,,,,
TIENDA ARA 0234 SANTA MARTA CONCEPCION,SANTA MARTA PARA EL MAGDALENA,182081,2016/10/06,ACTIVA,2025/03/21,2025,,,,,,
TIENDA ARA 0235 CENTRO COMERCIAL MEGA 10,BOGOTA,2737571,2016/09/27,ACTIVA,2025/03/20,2025,4.6036709,-74.07551959999999,"Cra. 10 # 15-54, Bogotá, Colombia",4.6036709,-74.07551959999999,"Cra. 10 # 15-54, Bogotá, Colombia"
TIENDA ARA 0243 MADRID SANTA MATILDE,FACATATIVA,104976,2016/10/20,ACTIVA,2025/03/26,2025,,,,,,
TIENDA ARA 0243 MADRID SANTA MATILDE,FACATATIVA,112910,2017/08/17,CANCELADA,2017/08/17,2017,,,,,,
TIENDA ARA 0259 GALAPA VILLA OLIMPICA,BARRANQUILLA,658871,2016/10/26,ACTIVA,2025/03/21,2025,,,,,,
TIENDA ARA 0262 ARACATACA,SANTA MARTA PARA EL MAGDALENA,196401,2017/11/30,ACTIVA,2025/03/21,2025,,,,,,
TIENDA ARA 0271 FUNDACION,SANTA MARTA PARA EL MAGDALENA,190106,2017/06/13,ACTIVA,2025/03/21,2025,,,,,,
TIENDA ARA 0293 SANTA MARTA BASTIDAS,SANTA MARTA PARA EL MAGDALENA,190624,2017/06/28,ACTIVA,2025/03/21,2025,,,,,,
TIENDA ARA 0298 IBAGUE RICAURTE ALTO,IBAGUE,286269,2017/12/01,ACTIVA,2025/03/21,2025,4.4326165,-75.2441534,"Calle 20 # 11 -51 Sur, Ricaurte, Ibagué, Tolima, Colombia",4.4326165,-75.2441534,"Calle 20 # 11 -51 Sur, Ricaurte, Ibagué, Tolima, Colombia"
TIENDA ARA 0307 BOGOTA BARRANCAS DOS,BOGOTA,2886916,2017/10/31,ACTIVA,2025/03/20,2025,,,,,,
TIENDA ARA 0363 GRANADA LA AURORA,VILLAVICENCIO,323313,2017/11/07,ACTIVA,2025/03/20,2025,,,,,,
TIENDA ARA 0383 SANTA MARTA LAS AMERICAS,SANTA MARTA PARA EL MAGDALENA,194214,2017/10/04,ACTIVA,2025/03/21,2025,,,,,,
TIENDA ARA 0400 GRANADA CENTRO,VILLAVICENCIO,324484,2017/12/04,ACTIVA,2025/03/20,2025,,,,,,
TIENDA ARA 0411 BARRANQUILLA BOYACA,BARRANQUILLA,690885,2017/12/01,ACTIVA,2025/03/21,2025,,,,,,
TIENDA ARA 0453 SINCELEJO SAN CARLOS,SINCELEJO,103900,2018/04/25,ACTIVA,2025/03/21,2025,,,,,,
TIENDA ARA 0499 ARMERO GUAYABAL CENTRO,HONDA,63976,2018/07/27,ACTIVA,2025/03/21,2025,5.028223,-74.88821349999999,"Cra. 7 # 6 - 79, Guayabal, Armero, Tolima, Colombia",5.028223,-74.88821349999999,"Cra. 7 # 6 - 79, Guayabal, Armero, Tolima, Colombia"
TIENDA ARA 0500 ORTEGA CENTRO,SUR Y ORIENTE DEL TOLIMA,96119,2018/11/06,ACTIVA,2025/03/19,2025,,,,,,
TIENDA ARA 0505 SANTA MARTA RODADERO CRA 2,SANTA MARTA PARA EL MAGDALENA,216687,2019/05/22,ACTIVA,2025/03/21,2025,11.2012359,-74.2261067,"a 11b-134,, Cra. 4 #11b-2, Gaira, Santa Marta, Magdalena, Colombia",11.2012359,-74.2261067,"a 11b-134,, Cra. 4 #11b-2, Gaira, Santa Marta, Magdalena, Colombia"
TIENDA ARA 0523 VILLAVICENCIO CIUDAD MILENIO,VILLAVICENCIO,339050,2018/09/18,ACTIVA,2025/03/20,2025,,,,,,
TIENDA ARA 0536 SANTA MARTA MANZANARES CRA 4,SANTA MARTA PARA EL MAGDALENA,214562,2019/03/27,ACTIVA,2025/03/21,2025,11.2430977,-74.2103224,"Cra. 4, Comuna 2, Santa Marta, Magdalena, Colombia",11.2430977,-74.2103224,"Cra. 4, Comuna 2, Santa Marta, Magdalena, Colombia"
TIENDA ARA 0545 SANTA MARTA PESCAITO,SANTA MARTA PARA EL MAGDALENA,214563,2019/03/27,ACTIVA,2025/03/21,2025,,,,,,
TIENDA ARA 0548 EL RETEN CENTRO,SANTA MARTA PARA EL MAGDALENA,212677,2019/02/14,ACTIVA,2025/03/21,2025,,,,,,
TIENDA ARA 0560 IBAGUE LADERAS PIEDRA PINTADA,IBAGUE,298375,2018/12/18,ACTIVA,2025/03/21,2025,,,,,,
TIENDA ARA 0568 AYAPEL CENTRO,MONTERIA,171865,2019/05/14,ACTIVA,2025/03/20,2025,,,,,,
TIENDA ARA 0618 SANTA MARTA MERCADO CALLE 11,SANTA MARTA PARA EL MAGDALENA,222246,2019/10/21,ACTIVA,2025/03/21,2025,,,,,,
TIENDA ARA 0646 CIENAGA CALLE 20,SANTA MARTA PARA EL MAGDALENA,223124,2019/11/19,ACTIVA,2025/03/21,2025,,,,,,
TIENDA ARA 0683 SANTA MARTA BONDA,SANTA MARTA PARA EL MAGDALENA,238846,2021/02/17,ACTIVA,2025/03/21,2025,,,,,,
TIENDA ARA 0701 PENSILVANIA CENTRO,LA DORADA,59885,2021/05/12,ACTIVA,2025/03/20,2025,,,,,,
TIENDA ARA 0714 LA PAZ CENTRO,VALLEDUPAR,177509,2021/01/26,ACTIVA,2025/03/21,2025,,,,,,
TIENDA ARA 0733 CHIGORODÓ EL JARDIN,URABA,102738,2021/02/24,ACTIVA,2025/03/20,2025,,,,,,
TIENDA ARA 0747 SABANALARGA LOS MANGUITOS,BARRANQUILLA,799004,2021/08/11,ACTIVA,2025/03/21,2025,,,,,,
TIENDA ARA 0751 CALI GUABITO MALL Q,CALI,1109769,2021/02/24,ACTIVA,2025/03/20,2025,,,,,,
TIENDA ARA 0761 CÚCUTA URBANIZACIÓN LOS ANGELES,CUCUTA,404787,2021/10/08,ACTIVA,2025/03/21,2025,,,,,,
TIENDA ARA 0819 GUACAMAYAL ZONA BANANERA,SANTA MARTA PARA EL MAGDALENA,248985,2021/11/19,ACTIVA,2025/03/21,2025,,,,,,
TIENDA ARA 0843 SANTA MARTA ANDREA CAROLINA,SANTA MARTA PARA EL MAGDALENA,248044,2021/10/28,ACTIVA,2025/03/21,2025,,,,,,
TIENDA ARA 0858 SANTA MARTA TORRES DEL PARQUE,SANTA MARTA PARA EL MAGDALENA,249024,2021/11/22,ACTIVA,2025/03/21,2025,,,,,,
TIENDA ARA 0864 FLORIDA LA ESPERANZA,PALMIRA,138528,2021/12/06,ACTIVA,2025/03/20,2025,,,,,,
TIENDA ARA 0931 MAICAO EL BOSQUE BOSCAN,LA GUAJIRA,173264,2022/09/20,ACTIVA,2025/03/20,2025,,,,,,
TIENDA ARA 0935 GUADALAJARA DE BUGA EL JARDIN,BUGA,82283,2022/08/22,ACTIVA,2025/03/21,2025,,,,,,
TIENDA ARA 0945 SANTA MARTA GAIRA CENTRO,SANTA MARTA PARA EL MAGDALENA,259332,2022/08/18,ACTIVA,2025/03/21,2025,,,,,,
TIENDA ARA 0954 SAHAGUN EL CARMEN,MONTERIA,198289,2022/06/07,ACTIVA,2025/03/20,2025,,,,,,
TIENDA ARA 1003 SANTIAGO DE TOLU SAN FELIPE,SINCELEJO,129984,2022/10/07,ACTIVA,2025/03/21,2025,,,,,,
TIENDA ARA 1046 GUARANDA SAN CAMILO,MAGANGUE,52988,2022/09/16,ACTIVA,2025/03/20,2025,,,,,,
TIENDA ARA 1059 PIEDECUESTA PINARES,BUCARAMANGA,9000634921,2022/12/06,ACTIVA,2025/03/25,2025,,,,,,
TIENDA ARA 1077 MADRID LA VIRGEN,FACATATIVA,169980,2022/11/08,ACTIVA,2025/03/26,2025,,,,,,
TIENDA ARA 1089 LA GUAJIRA URIBIA ISMAEL GARCIA,LA GUAJIRA,173930,2022/10/14,ACTIVA,2025/03/21,2025,,,,,,
TIENDA ARA 1111 SAN MARTIN CENTRO CESAR,AGUACHICA,64476,2022/11/02,ACTIVA,2025/03/21,2025,,,,,,
TIENDA ARA 1131 MEDELLIN LA FLORESTA,MEDELLIN PARA ANTIOQUIA,76109202,2022/11/29,ACTIVA,2025/03/19,2025,,,,,,
TIENDA ARA 1133 JARDIN CARRERA 6,MEDELLIN PARA ANTIOQUIA,76789102,2023/03/22,CANCELADA,2023/03/22,2023,,,,,,
TIENDA ARA 1171 FLORENCIA ALTOS DE LA PRADERA,FLORENCIA PARA EL CAQUETA,127176,2022/11/17,ACTIVA,2025/03/21,2025,,,,,,
TIENDA ARA 1173 GARZON RESERVAS DE ORIENTE,HUILA,380691,2022/11/17,ACTIVA,2025/03/21,2025,,,,,,
TIENDA ARA 1196 FLORENCIA CUNDUY,FLORENCIA PARA EL CAQUETA,127177,2022/11/17,ACTIVA,2025/03/21,2025,,,,,,
TIENDA ARA 1205 BELLO ZAMORA,MEDELLIN PARA ANTIOQUIA,76080902,2022/11/23,ACTIVA,2025/03/19,2025,,,,,,
TIENDA ARA 1207 ZARAGOZA TRONCAL,MAGDALENA MEDIO,78831,2022/12/09,ACTIVA,2025/03/21,2025,,,,,,
TIENDA ARA 1209 CANDELARIA CENTRO,PALMIRA,143700,2022/11/23,ACTIVA,2025/03/21,2025,,,,,,
TIENDA ARA 1220 MARINILLA LA AMISTAD,ORIENTE ANTIOQUENO,149824,2022/11/24,ACTIVA,2025/03/21,2025,,,,,,
TIENDA ARA 1231 FLORENCIA LA ESTRELLA,FLORENCIA PARA EL CAQUETA,127178,2022/11/17,ACTIVA,2025/03/21,2025,,,,,,
TIENDA ARA 1237 MEDELLIN MORAVIA,MEDELLIN PARA ANTIOQUIA,76081202,2022/11/23,ACTIVA,2025/03/19,2025,,,,,,
TIENDA ARA 1242 MADRID SOCIEGO,BOGOTA,3617462,2022/12/27,ACTIVA,2025/03/31,2025,,,,,,
TIENDA ARA 1247 ALBANIA EL SILENCIO GUAJIRA,LA GUAJIRA,177284,2023/04/20,ACTIVA,2025/03/21,2025,,,,,,
TIENDA ARA 1253 VENECIA CALLE BOLIVAR,MEDELLIN PARA ANTIOQUIA,76807502,2023/03/24,ACTIVA,2025/03/19,2025,,,,,,
TIENDA ARA 1254 ENVIGADO EL ESMERALDAL,ABURRA SUR,260810,2023/03/29,ACTIVA,2025/03/19,2025,6.1742029,-75.5745352,"Cra. 28 #27 Sur-68, Bosques de Esmeraldal, Envigado, Antioquia, Colombia",6.1742029,-75.5745352,"Cra. 28 #27 Sur-68, Bosques de Esmeraldal, Envigado, Antioquia, Colombia"
TIENDA ARA 1265 PUERTO BOYACA SANTA BARBARA,LA DORADA,65735,2023/02/27,ACTIVA,2025/03/20,2025,5.9746146,-74.5816571,"Ak. 5 #2228, Puerto Boyacá, Boyacá, Colombia",5.9746146,-74.5816571,"Ak. 5 #2228, Puerto Boyacá, Boyacá, Colombia"
TIENDA ARA 1266 TOLIMA IBAGUE ENTRE RIOS,IBAGUE,356696,2023/03/23,ACTIVA,2025/03/21,2025,,,,,,
TIENDA ARA 1284 MEDELLIN MANRIQUE,MEDELLIN PARA ANTIOQUIA,76799302,2023/03/23,ACTIVA,2025/03/19,2025,,,,,,
TIENDA ARA 1290 SAN JERONIMO,MEDELLIN PARA ANTIOQUIA,77582602,2023/07/11,ACTIVA,2025/03/19,2025,,,,,,
TIENDA ARA 1307 ASTREA CENTRO CESAR,VALLEDUPAR,201053,2023/05/18,ACTIVA,2025/03/21,2025,,,,,,
TIENDA ARA 1347 MEDELLIN COMUNA 5 CASTILLA,MEDELLIN PARA ANTIOQUIA,78368902,2023/11/10,ACTIVA,2025/03/19,2025,,,,,,
TIENDA ARA 1363 BOGOTA RAFAEL URIBE PORTAL DE MOLINO,BOGOTA,3778547,2024/02/07,ACTIVA,2025/03/20,2025,,,,,,
TIENDA ARA 1370 SANTA MARTA ALFONSO LOPEZ,SANTA MARTA PARA EL MAGDALENA,273584,2023/10/11,ACTIVA,2025/03/21,2025,,,,,,
TIENDA ARA 1445 CALI CIUDAD CORDOBA,CALI,1247799,2025/03/17,ACTIVA,2025/03/17,2025,3.3955826,-76.508044,"Cl. 55A #46 49Navarro, Navarro, Cali, Valle del Cauca, Colombia",3.3955826,-76.508044,"Cl. 55A #46 49Navarro, Navarro, Cali, Valle del Cauca, Colombia"
TIENDA ARA 1455 MEDELLIN BARRIO COLOMBIA,MEDELLIN PARA ANTIOQUIA,78252102,2023/10/19,ACTIVA,2025/03/19,2025,,,,,,
TIENDA ARA 1456 BELLO NIQUIA DIAGONAL 61C,MEDELLIN PARA ANTIOQUIA,79801302,2024/06/26,ACTIVA,2025/03/19,2025,,,,,,
TIENDA ARA 1473 CIUDADELA DEL NORTE DIAGONAL 50A,MEDELLIN PARA ANTIOQUIA,79088702,2024/03/11,ACTIVA,2025/03/19,2025,,,,,,
TIENDA ARA 1495 LA CEJA SAN CAYETANO,ORIENTE ANTIOQUENO,171744,2025/04/23,ACTIVA,2025/04/23,2025,,,,,,
TIENDA ARA 1504 PALMIRA LOS LIBERTADORES CALLE 28,PALMIRA,151692,2024/05/23,ACTIVA,2025/03/21,2025,3.5247678,-76.2964394,"Cl. 28 #61 # 24, Palmira, Valle del Cauca, Colombia",3.5247678,-76.2964394,"Cl. 28 #61 # 24, Palmira, Valle del Cauca, Colombia"
TIENDA ARA 1535 SANTA MARTA LOS NARANJOS,SANTA MARTA PARA EL MAGDALENA,288881,2025/02/14,ACTIVA,2025/02/14,2025,,,,,,
TIENDA ARA 1550 SANTA MARTA FERROCARRIL,SANTA MARTA PARA EL MAGDALENA,291260,2025/04/23,ACTIVA,2025/04/23,2025,,,,,,
TIENDA ARA 1558 YARUMAL CENTRO CRA 20,MEDELLIN PARA ANTIOQUIA,80531302,2024/10/16,ACTIVA,2025/03/19,2025,,,,,,
TIENDA ARA 1573 YARUMAL VERSALLES CRA 22,MEDELLIN PARA ANTIOQUIA,80531202,2024/10/16,ACTIVA,2025/03/19,2025,,,,,,
TIENDA ARA 1594 MEDELLIN LOS COLORES,MEDELLIN PARA ANTIOQUIA,80752502,2024/11/25,ACTIVA,2025/03/19,2025,,,,,,
TIENDA ARA 1600 SANTA MARTA PLAYA SALGUERO,SANTA MARTA PARA EL MAGDALENA,293199,2025/06/20,ACTIVA,2025/06/20,2025,,,,,,
TIENDA ARA 1619 LA CALERA MALL GARDENS,BOGOTA,3940647,2025/03/25,ACTIVA,2025/03/25,2025,,,,,,
TIENDA ARA 1628 MADRID LOS ALCAPARROS,FACATATIVA,196321,2025/04/10,ACTIVA,2025/04/10,2025,4.736189700000001,-74.2623952,"Cl. 9 #8 - 4, Madrid, Cundinamarca, Colombia",4.736189700000001,-74.2623952,"Cl. 9 #8 - 4, Madrid, Cundinamarca, Colombia"
TIENDA ARA 1736 SANTA MARTA TEJARES,SANTA MARTA PARA EL MAGDALENA,294286,2025/07/24,ACTIVA,2025/07/24,2025,,,,,,
TIENDA ARA 414 GINEBRA SIMON BOLIVAR,BUGA,66464,2017/12/07,ACTIVA,2025/03/21,2025,,,,,,
TIENDA ARA 433 - RESTREPO VALLE,BUGA,72541,2019/10/04,ACTIVA,2025/03/21,2025,,,,,,
TIENDA ARA 567 ORIHUECA CALLE 5,SANTA MARTA PARA EL MAGDALENA,213995,2019/03/13,ACTIVA,2025/03/21,2025,,,,,,
TIENDA ARA 588 MAGDALENA - EL DIFICIL,SANTA MARTA PARA EL MAGDALENA,218061,2019/06/25,ACTIVA,2025/03/21,2025,,,,,,
TIENDA ARA 623 GAIRA SANTA MARTA,SANTA MARTA PARA EL MAGDALENA,220972,2019/09/13,ACTIVA,2025/03/21,2025,,,,,,
TIENDA ARA 625 SANTA ROSA LA HERMOSA,SANTA ROSA DE CABAL,37056,2019/12/11,ACTIVA,2025/03/20,2025,,,,,,
TIENDA ARA 0809 EL PIÑON CARRERA 3,SANTA MARTA PARA EL MAGDALENA,248999,2021/11/22,ACTIVA,2025/03/21,2025,11.2520735,-74.21002519999999,"Cra. 2 #7-46, Comuna 3, Santa Marta, Magdalena, Colombia",11.2520735,-74.21002519999999,"Cra. 2 #7-46, Comuna 3, Santa Marta, Magdalena, Colombia"
TIENDA ARA 1361 BOGOTA BARRIOS UNIDOS JORGE ELIECER GAITAN,BOGOTA,3867075,2024/09/06,ACTIVA,2025/03/20,2025,4.6743957,-74.0720157,"0000, Barrios Unidos, Bogotá, Colombia",4.6743957,-74.0720157,"0000, Barrios Unidos, Bogotá, Colombia"
TIENDA ARA 1338 SOLEDAD CUSULES,BARRANQUILLA,877300,2023/09/20,ACTIVA,2025/03/21,2025,10.9049817,-74.7953898,"08307, Soledad, Atlántico, Colombia",10.9049817,-74.7953898,"08307, Soledad, Atlántico, Colombia"
TIENDA ARA 0667 BOGOTA VICTORIA NORTE,BOGOTA,3198532,2019/12/19,ACTIVA,2025/03/20,2025,4.7320478,-74.0500892,"09, Auto. Norte #50, Bogotá, Colombia",4.7320478,-74.0500892,"09, Auto. Norte #50, Bogotá, Colombia"
TIENDA ARA 0199 COSTA AZUL SUBA,BOGOTA,2708109,2016/07/11,ACTIVA,2025/03/20,2025,4.7410215,-74.0969942,"103 C - 73, Cl. 139, Suba, Bogotá, Cundinamarca, Colombia",4.7410215,-74.0969942,"103 C - 73, Cl. 139, Suba, Bogotá, Cundinamarca, Colombia"
TIENDA ARA 1195 BOGOTA PUENTE ARANDA LA TRINIDAD,BOGOTA,3610705,2022/11/25,ACTIVA,2025/03/20,2025,4.6243865,-74.1159347,"11, Cl. 5a #58, Puente Aranda, Bogotá, Colombia",4.6243865,-74.1159347,"11, Cl. 5a #58, Puente Aranda, Bogotá, Colombia"
TIENDA ARA 0787 MOÑITOS CORDOBA,MONTERIA,190636,2021/08/19,ACTIVA,2025/03/20,2025,9.2456899,-76.1314996,"231001, Monitos, Córdoba, Colombia",9.2456899,-76.1314996,"231001, Monitos, Córdoba, Colombia"
TIENDA ARA 0303 ANAPOIMA,GIRARDOT,85752,2017/08/22,ACTIVA,2025/03/20,2025,4.3082326,-74.7988161,"252437, Dg. 8 #32 85, Girardot, Cundinamarca, Colombia",4.3082326,-74.7988161,"252437, Dg. 8 #32 85, Girardot, Cundinamarca, Colombia"
TIENDA ARA 0322 GIRARDOT CENTRO,GIRARDOT,85121,2017/07/10,ACTIVA,2025/03/20,2025,4.3082326,-74.7988161,"252437, Dg. 8 #32 85, Girardot, Cundinamarca, Colombia",4.3082326,-74.7988161,"252437, Dg. 8 #32 85, Girardot, Cundinamarca, Colombia"
TIENDA ARA 0353 EL COLEGIO CENTRO,GIRARDOT,87073,2017/12/01,CANCELADA,2018/03/14,2018,4.3082326,-74.7988161,"252437, Dg. 8 #32 85, Girardot, Cundinamarca, Colombia",4.3082326,-74.7988161,"252437, Dg. 8 #32 85, Girardot, Cundinamarca, Colombia"
TIENDA ARA 0424 GIRARDOT,GIRARDOT,88264,2018/03/14,ACTIVA,2025/03/20,2025,4.3082326,-74.7988161,"252437, Dg. 8 #32 85, Girardot, Cundinamarca, Colombia",4.3082326,-74.7988161,"252437, Dg. 8 #32 85, Girardot, Cundinamarca, Colombia"
TIENDA ARA 0458 LA MESA CALLE 8,GIRARDOT,89474,2018/06/20,ACTIVA,2025/03/20,2025,4.3082326,-74.7988161,"252437, Dg. 8 #32 85, Girardot, Cundinamarca, Colombia",4.3082326,-74.7988161,"252437, Dg. 8 #32 85, Girardot, Cundinamarca, Colombia"
TIENDA ARA 0601 VIOTA,GIRARDOT,94421,2019/07/08,ACTIVA,2025/03/20,2025,4.3082326,-74.7988161,"252437, Dg. 8 #32 85, Girardot, Cundinamarca, Colombia",4.3082326,-74.7988161,"252437, Dg. 8 #32 85, Girardot, Cundinamarca, Colombia"
TIENDA ARA 550 EL COLEGIO CENTRO,GIRARDOT,91398,2018/11/29,ACTIVA,2025/03/20,2025,4.3082326,-74.7988161,"252437, Dg. 8 #32 85, Girardot, Cundinamarca, Colombia",4.3082326,-74.7988161,"252437, Dg. 8 #32 85, Girardot, Cundinamarca, Colombia"
TIENDA ARA 0792 SITIONUEVO CENTRO MAGDALENA,BARRANQUILLA,823975,2021/11/19,ACTIVA,2025/03/21,2025,10.7765422,-74.7213234,"27 #7-71, Sitionuevo, Magdalena, Colombia",10.7765422,-74.7213234,"27 #7-71, Sitionuevo, Magdalena, Colombia"
TIENDA ARA 0534 BOGOTA TERMINAL DE TRANSPORTES,BOGOTA,3043782,2018/12/06,ACTIVA,2025/03/20,2025,4.6523841,-74.11232249999999,"278A06_GM_Ciudad Salitre 3ra Etapa, Bogotá, Colombia",4.6523841,-74.11232249999999,"278A06_GM_Ciudad Salitre 3ra Etapa, Bogotá, Colombia"
TIENDA ARA 1611 BOGOTA TEUSAQUILLO SALITRE AV FERROCARRIL,BOGOTA,3939547,2025/03/21,ACTIVA,2025/03/21,2025,4.6523841,-74.11232249999999,"278A06_GM_Ciudad Salitre 3ra Etapa, Bogotá, Colombia",4.6523841,-74.11232249999999,"278A06_GM_Ciudad Salitre 3ra Etapa, Bogotá, Colombia"
TIENDA ARA 0890 BOGOTÁ KENNEDY CARIMAGUA,BOGOTA,3463104,2021/12/17,ACTIVA,2025/03/20,2025,4.614873,-74.1453004,"37b Sur-46, Cra. 72n 37b Sur-43, Bogotá, Colombia",4.614873,-74.1453004,"37b Sur-46, Cra. 72n 37b Sur-43, Bogotá, Colombia"
TIENDA ARA 1282 BOGOTA KENNEDY CARVAJAL,BOGOTA,3655048,2023/03/21,ACTIVA,2025/03/20,2025,4.614873,-74.1453004,"37b Sur-46, Cra. 72n 37b Sur-43, Bogotá, Colombia",4.614873,-74.1453004,"37b Sur-46, Cra. 72n 37b Sur-43, Bogotá, Colombia"
TIENDA ARA 1548 ANTIOQUIA DON DIEGO - EL RETIRO,ORIENTE ANTIOQUENO,167704,2024/11/27,ACTIVA,2025/03/21,2025,6.0922041,-75.4802982,"3GR9+VV, Don Diego, Retiro, Antioquia, Colombia",6.0922041,-75.4802982,"3GR9+VV, Don Diego, Retiro, Antioquia, Colombia"
TIENDA ARA 0355 VENADILLO CENTRO,IBAGUE,282845,2017/08/17,ACTIVA,2025/03/21,2025,4.4117061,-75.1719861,"40TLC, Ibagué, Tolima, Colombia",4.4117061,-75.1719861,"40TLC, Ibagué, Tolima, Colombia"
TIENDA ARA 0490 IBAGUE LA CAROLINA,IBAGUE,293118,2018/06/26,ACTIVA,2025/03/21,2025,4.4117061,-75.1719861,"40TLC, Ibagué, Tolima, Colombia",4.4117061,-75.1719861,"40TLC, Ibagué, Tolima, Colombia"
TIENDA ARA 1123 IBAGUE PROTECHO,IBAGUE,374665,2024/08/09,ACTIVA,2025/03/21,2025,4.435289099999999,-75.21786809999999,"Cra. 4 Bis #33-65, Ibagué, Tolima, Colombia",4.435289099999999,-75.21786809999999,"Cra. 4 Bis #33-65, Ibagué, Tolima, Colombia"
TIENDA ARA 0926 CURUMANI CENTRO,AGUACHICA,62739,2022/06/13,ACTIVA,2025/03/21,2025,9.201215999999999,-73.5424723,"45, Curumaní, Cesar, Colombia",9.201215999999999,-73.5424723,"45, Curumaní, Cesar, Colombia"
TIENDA ARA 0793 LOS PATIOS SAN FERNANDO,CUCUTA,408038,2021/12/10,ACTIVA,2025/03/21,2025,7.815996399999999,-72.516126,"55, Los Patios, Norte de Santander, Colombia",7.815996399999999,-72.516126,"55, Los Patios, Norte de Santander, Colombia"
TIENDA ARA 1301 TIMANÁ CENTRO,HUILA,394179,2023/10/12,ACTIVA,2025/03/21,2025,1.8463812,-76.0452155,"Cra. 1A Bis #273, Pitalito, Huila, Colombia",1.8463812,-76.0452155,"Cra. 1A Bis #273, Pitalito, Huila, Colombia"
TIENDA ARA 1517 ANTIOQUIA RIONEGRO AUTOPISTA MEDELLIN BOGOTA,ORIENTE ANTIOQUENO,173394,2025/06/24,ACTIVA,2025/06/24,2025,6.198189999999999,-75.3824453,"60, Rionegro, Antioquia, Colombia",6.198189999999999,-75.3824453,"60, Rionegro, Antioquia, Colombia"
TIENDA ARA 0919 CHIMICHAGUA CALLE 5,VALLEDUPAR,193109,2022/08/02,ACTIVA,2025/03/21,2025,9.2535773,-73.8134252,"753P+FJ, Chimichagua, Cesar, Colombia",9.2535773,-73.8134252,"753P+FJ, Chimichagua, Cesar, Colombia"
TIENDA ARA 0813 SAN PEDRO DE URABA,URABA,107062,2021/12/10,ACTIVA,2025/03/20,2025,8.2766476,-76.38006519999999,"7JGC+P22, San Pedro de Uraba, Antioquia, Colombia",8.2766476,-76.38006519999999,"7JGC+P22, San Pedro de Uraba, Antioquia, Colombia"
TIENDA ARA 0952 BOGOTA FONTIBON LA FELICIDAD,BOGOTA,3534833,2022/05/26,ACTIVA,2025/03/20,2025,4.653803300000001,-74.1302688,"AV. Centenario - KR 78G, Bogotá, Colombia",4.653803300000001,-74.1302688,"AV. Centenario - KR 78G, Bogotá, Colombia"
TIENDA ARA 0817 ABREGO,OCANA,39895,2021/12/14,ACTIVA,2025/03/21,2025,8.0817641,-73.2203656,"Abrego, Norte de Santander, Colombia",8.0817641,-73.2203656,"Abrego, Norte de Santander, Colombia"
TIENDA ARA 0297 BOGOTA CHICO NORTE TRES,BOGOTA,2854734,2017/08/15,ACTIVA,2025/03/20,2025,4.6851973,-74.0499842,"Ac 100 # 17 - 13, Bogotá, Colombia",4.6851973,-74.0499842,"Ac 100 # 17 - 13, Bogotá, Colombia"
TIENDA ARA 1015 BOGOTA USAQUEN NAVARRA 116,BOGOTA,3562670,2022/08/01,ACTIVA,2025/03/20,2025,4.6986808,-74.0515537,"Ac 116 #19a-41, Usaquén, Bogotá, Cundinamarca, Colombia",4.6986808,-74.0515537,"Ac 116 #19a-41, Usaquén, Bogotá, Cundinamarca, Colombia"
TIENDA ARA 1245 BOGOTA USAQUEN CHICO NAVARRA,BOGOTA,3612093,2022/11/30,ACTIVA,2025/03/20,2025,4.6986808,-74.0515537,"Ac 116 #19a-41, Usaquén, Bogotá, Cundinamarca, Colombia",4.6986808,-74.0515537,"Ac 116 #19a-41, Usaquén, Bogotá, Cundinamarca, Colombia"
TIENDA ARA 0198 NIZA,BOGOTA,2699761,2016/06/17,ACTIVA,2025/03/20,2025,4.7106409,-74.0728378,"Ac 127 #60-39, Suba, Bogotá, Cundinamarca, Colombia",4.7106409,-74.0728378,"Ac 127 #60-39, Suba, Bogotá, Cundinamarca, Colombia"
TIENDA ARA 0463 BOGOTA NORMANDIA,BOGOTA,2990131,2018/07/25,ACTIVA,2025/03/20,2025,4.6697742,-74.1055534,"Ac 53 # 71-43/03, Bogotá, Colombia",4.6697742,-74.1055534,"Ac 53 # 71-43/03, Bogotá, Colombia"
TIENDA ARA 1588 BOGOTA TEUSAQUILLO CENTRO COMERCIAL GRAN ESTACION LOCAL 2-19,BOGOTA,3897534,2024/12/05,ACTIVA,2025/03/21,2025,4.6473986,-74.1019189,"Ac. 26 #62-47, Bogotá, Colombia",4.6473986,-74.1019189,"Ac. 26 #62-47, Bogotá, Colombia"
TIENDA ARA 0830 MOMPOX URBANIZACION ANTIOQUIA,MAGANGUE,50850,2021/11/06,ACTIVA,2025/03/20,2025,9.238553999999999,-74.4289747,"Agencias de Transporte Mompox, Santa Cruz de Mompox, Mompós, Bolívar, Colombia",9.238553999999999,-74.4289747,"Agencias de Transporte Mompox, Santa Cruz de Mompox, Mompós, Bolívar, Colombia"
TIENDA ARA 1043 SAN GIL SAGRADA FAMILIA,BUCARAMANGA,9000634266,2022/11/23,ACTIVA,2025/03/21,2025,,,,,,
TIENDA ARA 1048 BUCARAMANGA SAN ALONSO,BUCARAMANGA,9000634598,2022/11/29,ACTIVA,2025/03/21,2025,7.1310842,-73.1198716,"Ak 27 #18-22, Bucaramanga, Santander, Colombia",7.1310842,-73.1198716,"Ak 27 #18-22, Bucaramanga, Santander, Colombia"
TIENDA ARA 1049 BUCARAMANGA MEJORAS PUBLICAS,BUCARAMANGA,9000634597,2022/11/29,ACTIVA,2025/03/21,2025,7.1210485,-73.11623689999999,"Ak 27 #36-39, Mejoras Públicas, Bucaramanga, Santander, Colombia",7.1210485,-73.11623689999999,"Ak 27 #36-39, Mejoras Públicas, Bucaramanga, Santander, Colombia"
TIENDA ARA 1141 BUCARAMANGA NUEVO SOTOMAYOR,BUCARAMANGA,9000634268,2022/11/23,ACTIVA,2025/03/21,2025,7.1145384,-73.11512499999999,"Ak 27 #51-10, Nuevo Sotomayor, Bucaramanga, Santander, Colombia",7.1145384,-73.11512499999999,"Ak 27 #51-10, Nuevo Sotomayor, Bucaramanga, Santander, Colombia"
TIENDA ARA 0418 BOGOTA CHAPINERO MARLY CL 47,BOGOTA,2898107,2017/12/06,ACTIVA,2025/03/20,2025,4.634259999999999,-74.0637127,"Ak 7 # 47-50 LC 1, Bogotá, Colombia",4.634259999999999,-74.0637127,"Ak 7 # 47-50 LC 1, Bogotá, Colombia"
TIENDA ARA 1607 BOGOTÁ USAQUÉN HUB SAN JUAN DE ÁVILA,BOGOTA,3916566,2025/02/05,ACTIVA,2025/02/05,2025,4.735252399999999,-74.0546751,"Cl. 152 #53-5, Suba, Bogotá, D.C, Bogotá, Colombia",4.735252399999999,-74.0546751,"Cl. 152 #53-5, Suba, Bogotá, D.C, Bogotá, Colombia"
TIENDA ARA 1651 BOGOTÁ USAQUÉN KR 7 CL 123,BOGOTA,3941648,2025/03/27,ACTIVA,2025/03/27,2025,4.6991184,-74.0293603,"Ak 7 #123-65, Bogotá, Colombia",4.6991184,-74.0293603,"Ak 7 #123-65, Bogotá, Colombia"
TIENDA ARA 1610 BOGOTA USAQUEN MALL NORTH POINT,BOGOTA,3939539,2025/03/21,ACTIVA,2025/03/21,2025,4.7307854,-74.02382,"Ak 7 #155-80, Bogotá, Colombia",4.7307854,-74.02382,"Ak 7 #155-80, Bogotá, Colombia"
TIENDA ARA 0992 BOGOTA SAN MARTIN SAN MARTIN SANTA FE,BOGOTA,3534831,2022/05/26,ACTIVA,2025/03/20,2025,4.617984700000001,-74.0680869,"Ak 7 #31-42, Bogotá, Colombia",4.617984700000001,-74.0680869,"Ak 7 #31-42, Bogotá, Colombia"
TIENDA ARA 0956 BOGOTA NAVARRA 106,BOGOTA,3534846,2022/05/26,ACTIVA,2025/03/20,2025,4.694297,-74.05090679999999,"Ak. 19 #106a-99 a 106a-1, Bogotá, Colombia",4.694297,-74.05090679999999,"Ak. 19 #106a-99 a 106a-1, Bogotá, Colombia"
TIENDA ARA 0473 BOGOTA LA VICTORIA,BOGOTA,2963798,2018/05/23,ACTIVA,2025/03/20,2025,4.5523248,-74.0917494,"Ak. 4 Este #37A-34, San Cristóbal, Bogotá, Cundinamarca, Colombia",4.5523248,-74.0917494,"Ak. 4 Este #37A-34, San Cristóbal, Bogotá, Cundinamarca, Colombia"
TIENDA ARA 0870 CALI ALFONSO BONILLA,CALI,1171547,2022/11/25,ACTIVA,2025/03/20,2025,3.42024,-76.4810651,"Alfonso Bonilla, Cali, Valle del Cauca, Colombia",3.42024,-76.4810651,"Alfonso Bonilla, Cali, Valle del Cauca, Colombia"
TIENDA ARA 1486 BELLO EL PORVENIR,MEDELLIN PARA ANTIOQUIA,80765202,2024/11/27,ACTIVA,2025/03/19,2025,6.345694,-75.5660904,"Cl. 63 #13, BellaVista, Bello, Antioquia, Colombia",6.345694,-75.5660904,"Cl. 63 #13, BellaVista, Bello, Antioquia, Colombia"
TIENDA ARA 0737 CUCUTA VILLAS DEL RODEO,CUCUTA,393935,2021/05/03,ACTIVA,2025/03/21,2025,7.891534300000001,-72.5481925,"Anillo Vial Occidental, Cúcuta, Norte de Santander, Colombia",7.891534300000001,-72.5481925,"Anillo Vial Occidental, Cúcuta, Norte de Santander, Colombia"
TIENDA ARA 1467 SANTA ROSA DE CABAL CENTRO CRA 14 CALLE 18,SANTA ROSA DE CABAL,42087,2024/11/01,ACTIVA,2025/03/20,2025,4.8671319,-75.6192282,"Antigua cooperativa, Cl. 14 #11-26, Santa Rosa, Santa Rosa de Cabal, Risaralda, Colombia",4.8671319,-75.6192282,"Antigua cooperativa, Cl. 14 #11-26, Santa Rosa, Santa Rosa de Cabal, Risaralda, Colombia"
TIENDA ARA 1329 BOGOTA SUBA LA GAITANA,BOGOTA,3705199,2023/07/14,ACTIVA,2025/03/20,2025,4.7446141,-74.1066677,"Ara gaitana, Cl. 139 #118-05, Bogotá, Colombia",4.7446141,-74.1066677,"Ara gaitana, Cl. 139 #118-05, Bogotá, Colombia"
TIENDA ARA 0086 EL NOGAL,ARMENIA,196391,2014/11/28,ACTIVA,2025/03/21,2025,4.554952399999999,-75.6573719,"Armenia, Quindío, Colombia",4.554952399999999,-75.6573719,"Armenia, Quindío, Colombia"
TIENDA ARA 1695 ARMENIA GRAN COLOMBIA,ARMENIA,290417,2025/06/17,ACTIVA,2025/06/17,2025,4.554952399999999,-75.6573719,"Armenia, Quindío, Colombia",4.554952399999999,-75.6573719,"Armenia, Quindío, Colombia"
TIENDA ARA 0285 ZUCA PLAZA,BOGOTA,2780098,2017/02/13,ACTIVA,2025/03/20,2025,4.7549171,-74.1520925,"Autop Medellin Km 3.9 Costado Sur Zuca Plaza, Cota, Cundinamarca, Colombia",4.7549171,-74.1520925,"Autop Medellin Km 3.9 Costado Sur Zuca Plaza, Cota, Cundinamarca, Colombia"
TIENDA ARA 0982 CALI LA FLORA CALLE 44 N,CALI,1155872,2022/06/17,ACTIVA,2025/03/20,2025,3.4809031,-76.52338900000001,"Av 6a N #36/38 # 24, Cali, Valle del Cauca, Colombia",3.4809031,-76.52338900000001,"Av 6a N #36/38 # 24, Cali, Valle del Cauca, Colombia"
TIENDA ARA 1040 BOGOTA KENNEDY MARIA PAZ,BOGOTA,3610813,2022/11/25,ACTIVA,2025/03/20,2025,4.6373806,-74.1595616,"Av Ciudad de Cali 5a Sur-92, Bogotá, Colombia",4.6373806,-74.1595616,"Av Ciudad de Cali 5a Sur-92, Bogotá, Colombia"
TIENDA ARA 634 BOGOTA LA PAZ KENNEDY,BOGOTA,3182702,2019/10/22,ACTIVA,2025/03/20,2025,4.6373806,-74.1595616,"Av Ciudad de Cali 5a Sur-92, Bogotá, Colombia",4.6373806,-74.1595616,"Av Ciudad de Cali 5a Sur-92, Bogotá, Colombia"
TIENDA ARA 0978 BOGOTA ENGATIVA LAS FERIAS 2,BOGOTA,3534835,2022/05/26,ACTIVA,2025/03/20,2025,4.6892507,-74.08369309999999,"Av Cl 80 #57 69K, Bogotá, Colombia",4.6892507,-74.08369309999999,"Av Cl 80 #57 69K, Bogotá, Colombia"
TIENDA ARA 1534 BOGOTA ENGATIVA MALL CALLE 80,BOGOTA,3867077,2024/09/06,ACTIVA,2025/03/21,2025,4.6921702,-74.08442149999999,"Cra. 69t #80-25, Bogotá, Colombia",4.6921702,-74.08442149999999,"Cra. 69t #80-25, Bogotá, Colombia"
TIENDA ARA 0167 LA GRANJA,BOGOTA,2699764,2016/06/17,ACTIVA,2025/03/20,2025,4.6991049,-74.0966311,"Av Cl 80 #78A-23, Bogotá, Colombia",4.6991049,-74.0966311,"Av Cl 80 #78A-23, Bogotá, Colombia"
TIENDA ARA 1223 BOGOTA KENNEDY VILLA ALSACIA,BOGOTA,3610774,2022/11/25,ACTIVA,2025/03/20,2025,4.6492819,-74.13706979999999,"Av Guayacanes #25, Bogotá, Colombia",4.6492819,-74.13706979999999,"Av Guayacanes #25, Bogotá, Colombia"
TIENDA ARA 1691 BOGOTÁ KENNEDY MALL BAAZAR ALZACIA,BOGOTA,3939265,2025/03/20,ACTIVA,2025/03/20,2025,4.6492819,-74.13706979999999,"Av Guayacanes #25, Bogotá, Colombia",4.6492819,-74.13706979999999,"Av Guayacanes #25, Bogotá, Colombia"
TIENDA ARA 0406 DUITAMA AV DE LAS AMERICAS,DUITAMA,87788,2017/11/30,ACTIVA,2025/03/25,2025,5.8206524,-73.0359995,"Av de las Américas #21-19, Duitama, Boyacá, Colombia",5.8206524,-73.0359995,"Av de las Américas #21-19, Duitama, Boyacá, Colombia"
TIENDA ARA 1203 BOYACA DUITAMA PLAZA DE MERCADO,DUITAMA,110586,2022/11/25,ACTIVA,2025/03/25,2025,5.8206524,-73.0359995,"Av de las Américas #21-19, Duitama, Boyacá, Colombia",5.8206524,-73.0359995,"Av de las Américas #21-19, Duitama, Boyacá, Colombia"
TIENDA ARA 0706 VALLEDUPAR LA NEVADA,VALLEDUPAR,177543,2021/01/26,ACTIVA,2025/03/21,2025,10.4880371,-73.2760995,"Av sierra Nevada, Valledupar, Cesar, Colombia",10.4880371,-73.2760995,"Av sierra Nevada, Valledupar, Cesar, Colombia"
TIENDA ARA 0829 VALLEDUPAR SIERRA NEVADA,VALLEDUPAR,185987,2021/11/12,ACTIVA,2025/03/21,2025,10.4880371,-73.2760995,"Av sierra Nevada, Valledupar, Cesar, Colombia",10.4880371,-73.2760995,"Av sierra Nevada, Valledupar, Cesar, Colombia"
TIENDA ARA 0717 CÚCUTA LLERAS RESTREPO,CUCUTA,395776,2021/06/01,ACTIVA,2025/03/21,2025,7.9000277,-72.50088450000001,"Av. 0 #66, Barrio Lleras Restrepo, Cúcuta, Norte de Santander, Colombia",7.9000277,-72.50088450000001,"Av. 0 #66, Barrio Lleras Restrepo, Cúcuta, Norte de Santander, Colombia"
TIENDA ARA 0765 CUCUTA CHAPINERO,CUCUTA,399664,2021/07/29,ACTIVA,2025/03/20,2025,7.9076678,-72.5145745,"Av. 1 #3-42, Barrio Chapinero, Cúcuta, Norte de Santander, Colombia",7.9076678,-72.5145745,"Av. 1 #3-42, Barrio Chapinero, Cúcuta, Norte de Santander, Colombia"
TIENDA ARA 1082 CÚCUTA SAN MARTIN,CUCUTA,431077,2022/11/23,ACTIVA,2025/03/21,2025,7.9030878,-72.47197899999999,"Av. 10, San Martín #2N -52 Local. 1, Cúcuta, Norte de Santander, Colombia",7.9030878,-72.47197899999999,"Av. 10, San Martín #2N -52 Local. 1, Cúcuta, Norte de Santander, Colombia"
TIENDA ARA 1359 CUCUTA SAN JOSÉ DE TORCOROMA,CUCUTA,455295,2024/03/01,ACTIVA,2025/03/21,2025,7.8919667,-72.4775434,"Av. 12 #11-54, Barrio San Jose, Cúcuta, Norte de Santander, Colombia",7.8919667,-72.4775434,"Av. 12 #11-54, Barrio San Jose, Cúcuta, Norte de Santander, Colombia"
TIENDA ARA 1572 CALI AGUACATAL AV 15 OESTE,CALI,1236222,2024/10/31,ACTIVA,2025/03/20,2025,3.4595265,-76.5507798,"Av. 15 Oe. #9-04, Cali, Valle del Cauca, Colombia",3.4595265,-76.5507798,"Av. 15 Oe. #9-04, Cali, Valle del Cauca, Colombia"
TIENDA ARA 0756 CÚCUTA MAGDALENA,CUCUTA,400961,2021/08/17,ACTIVA,2025/03/21,2025,7.874222400000001,-72.5212963,"Av. 20 A #23, Br. Gaitán, Cúcuta, Norte de Santander, Colombia",7.874222400000001,-72.5212963,"Av. 20 A #23, Br. Gaitán, Cúcuta, Norte de Santander, Colombia"
TIENDA ARA 0192 GALAPA CRUZ DE JUBILEO,BARRANQUILLA,655087,2016/09/07,ACTIVA,2025/03/21,2025,,,,,,
TIENDA ARA 0215 BARRANQUILLA GRANADILLO,BARRANQUILLA,655085,2016/09/07,ACTIVA,2025/03/21,2025,10.9988532,-74.820815,"Av. 20 de Julio #84-90, Nte. Centro Historico, Barranquilla, Atlántico, Colombia",10.9988532,-74.820815,"Av. 20 de Julio #84-90, Nte. Centro Historico, Barranquilla, Atlántico, Colombia"
TIENDA ARA 0582 BARRANQUILLA LA CAMPIÑA,BARRANQUILLA,737908,2019/06/27,ACTIVA,2025/03/21,2025,11.0180227,-74.8144698,"Cra. 65 #86 - 275, Riomar, Barranquilla, Atlántico, Colombia",11.0180227,-74.8144698,"Cra. 65 #86 - 275, Riomar, Barranquilla, Atlántico, Colombia"
TIENDA ARA 1514 PORVENIR CARRERA 44,BARRANQUILLA,913257,2025/04/21,ACTIVA,2025/04/21,2025,10.9988532,-74.820815,"Av. 20 de Julio #84-90, Nte. Centro Historico, Barranquilla, Atlántico, Colombia",10.9988532,-74.820815,"Av. 20 de Julio #84-90, Nte. Centro Historico, Barranquilla, Atlántico, Colombia"
TIENDA ARA 0082 BELMONTE,PEREIRA,18120170,2014/11/25,ACTIVA,2025/03/20,2025,4.812325,-75.7576763,"Av. 30 de Agosto No. 98, Pereira, Risaralda, Colombia",4.812325,-75.7576763,"Av. 30 de Agosto No. 98, Pereira, Risaralda, Colombia"
TIENDA ARA 0689 PEREIRA 30 DE AGOSTO,PEREIRA,18183926,2021/03/10,ACTIVA,2025/03/20,2025,4.812325,-75.7576763,"Av. 30 de Agosto No. 98, Pereira, Risaralda, Colombia",4.812325,-75.7576763,"Av. 30 de Agosto No. 98, Pereira, Risaralda, Colombia"
TIENDA ARA 0513 CUCUTA AVENIDA 5,CUCUTA,336938,2018/09/14,ACTIVA,2025/03/21,2025,7.8851194,-72.50342289999999,"Av. 5 #11-69, Cúcuta, Norte de Santander, Colombia",7.8851194,-72.50342289999999,"Av. 5 #11-69, Cúcuta, Norte de Santander, Colombia"
TIENDA ARA 0762 CÚCUTA MOTILONES,CUCUTA,405556,2021/10/21,ACTIVA,2025/03/21,2025,7.919461200000001,-72.5257055,"Av. 5 #7-75 a 7-1, Br. Motilones, Cúcuta, Norte de Santander, Colombia",7.919461200000001,-72.5257055,"Av. 5 #7-75 a 7-1, Br. Motilones, Cúcuta, Norte de Santander, Colombia"
TIENDA ARA 1372 CUCUTA GARCIA HERREROS,CUCUTA,454718,2024/02/22,ACTIVA,2025/03/21,2025,7.9319681,-72.496697,"Av. 6 #14, Barrio La Insula, Cúcuta, Norte de Santander, Colombia",7.9319681,-72.496697,"Av. 6 #14, Barrio La Insula, Cúcuta, Norte de Santander, Colombia"
TIENDA ARA 1431 CALI-GRANADA CALLE 12 N,CALI,1261528,2025/08/05,ACTIVA,2025/08/05,2025,3.4540407,-76.52665089999999,"Cra. 5 #18-36, San Nicolas, Cali, Valle del Cauca, Colombia",3.4540407,-76.52665089999999,"Cra. 5 #18-36, San Nicolas, Cali, Valle del Cauca, Colombia"
TIENDA ARA 443 CALI SAN VICENTE,CALI,1022101,2018/07/09,ACTIVA,2025/03/20,2025,3.4663762,-76.5300506,"Av. 6 Nte. #24 Norte-2 a, Cl. 24 Nte. #80, Cali, Valle del Cauca, Colombia",3.4663762,-76.5300506,"Av. 6 Nte. #24 Norte-2 a, Cl. 24 Nte. #80, Cali, Valle del Cauca, Colombia"
TIENDA ARA 1606 BOGOTA FONTIBON GRANJAS DE TECHO,BOGOTA,3939523,2025/03/21,ACTIVA,2025/03/21,2025,4.6718858,-74.14513459999999,"Cl. 17 #98 - 55, Fontibón, Bogotá, Cundinamarca, Colombia",4.6718858,-74.14513459999999,"Cl. 17 #98 - 55, Fontibón, Bogotá, Cundinamarca, Colombia"
TIENDA ARA 0716 CÚCUTA SAN RAFAEL,CUCUTA,388744,2021/02/23,ACTIVA,2025/03/21,2025,7.8727429,-72.5008895,"Av. 7 #25-94, Barrio El Rosal, Cúcuta, Norte de Santander, Colombia",7.8727429,-72.5008895,"Av. 7 #25-94, Barrio El Rosal, Cúcuta, Norte de Santander, Colombia"
TIENDA ARA 0284 BOGOTA ENGATIVA LA CABAÑA,BOGOTA,2896487,2017/11/30,ACTIVA,2025/03/20,2025,4.673247,-74.0990917,"Av. 70 # 63 D - 35, Bogotá, Colombia",4.673247,-74.0990917,"Av. 70 # 63 D - 35, Bogotá, Colombia"
TIENDA ARA 0757 CÚCUTA LA RIVIERA,CUCUTA,405566,2021/10/21,ACTIVA,2025/03/21,2025,7.8901643,-72.4910867,"Av. 9 Este, Barrio Sayago, Cúcuta, Norte de Santander, Colombia",7.8901643,-72.4910867,"Av. 9 Este, Barrio Sayago, Cúcuta, Norte de Santander, Colombia"
TIENDA ARA 0168 LOS LAGARTOS,BOGOTA,2699765,2016/06/17,ACTIVA,2025/03/20,2025,4.697211999999999,-74.08499549999999,"Av. Boyacá # 95-23, Suba, Bogotá, Cundinamarca, Colombia",4.697211999999999,-74.08499549999999,"Av. Boyacá # 95-23, Suba, Bogotá, Cundinamarca, Colombia"
TIENDA ARA 1443 BOGOTA ENGATIVA SANTA MARIA DEL LAGO,BOGOTA,3891881,2024/11/15,ACTIVA,2025/03/20,2025,4.688301399999999,-74.09463629999999,"Av. Boyacá #72-69, Engativá, Bogotá, Cundinamarca, Colombia",4.688301399999999,-74.09463629999999,"Av. Boyacá #72-69, Engativá, Bogotá, Cundinamarca, Colombia"
TIENDA ARA 1609 BOGOTA ENGATIVA PARQUE BOYACA,BOGOTA,3939532,2025/03/21,ACTIVA,2025/03/21,2025,4.688301399999999,-74.09463629999999,"Av. Boyacá #72-69, Engativá, Bogotá, Cundinamarca, Colombia",4.688301399999999,-74.09463629999999,"Av. Boyacá #72-69, Engativá, Bogotá, Cundinamarca, Colombia"
TIENDA ARA 1154 NEIVA BUGANVILES,HUILA,380656,2022/11/17,ACTIVA,2025/03/21,2025,2.9407962,-75.2646468,"Av. Buganviles, Neiva, Huila, Colombia",2.9407962,-75.2646468,"Av. Buganviles, Neiva, Huila, Colombia"
TIENDA ARA 0936 CALI CANEY CARRERA 80,CALI,1169324,2022/10/28,ACTIVA,2025/03/20,2025,3.388086,-76.516717,"Av. Cdad. de Cali #calle 48 80-26, Comuna 17, Cali, Valle del Cauca, Colombia",3.388086,-76.516717,"Av. Cdad. de Cali #calle 48 80-26, Comuna 17, Cali, Valle del Cauca, Colombia"
TIENDA ARA 0579 BOGOTA VENECIA,BOGOTA,3082110,2019/03/13,ACTIVA,2025/03/20,2025,4.5935261,-74.1385997,"Diag. 46A Sur #51-2 a 51-70, Bogotá, Colombia",4.5935261,-74.1385997,"Diag. 46A Sur #51-2 a 51-70, Bogotá, Colombia"
TIENDA ARA 0599 VENECIA DIAGONAL 46,BOGOTA,3116836,2019/05/23,ACTIVA,2025/03/20,2025,4.5946525,-74.137512,"Av. Cdad. de Quito #50-99 a 50-1, Bogotá, Colombia",4.5946525,-74.137512,"Av. Cdad. de Quito #50-99 a 50-1, Bogotá, Colombia"
TIENDA ARA 0282 MONTERIA URBINA,MONTERIA,156810,2017/06/28,ACTIVA,2025/03/20,2025,8.742265,-75.8837429,"Av. Circunvalar, Montería, Córdoba, Colombia",8.742265,-75.8837429,"Av. Circunvalar, Montería, Córdoba, Colombia"
TIENDA ARA 0390 MONTELIBANO,MONTERIA,160103,2017/11/29,ACTIVA,2025/03/20,2025,8.742265,-75.8837429,"Av. Circunvalar, Montería, Córdoba, Colombia",8.742265,-75.8837429,"Av. Circunvalar, Montería, Córdoba, Colombia"
TIENDA ARA 0404 CERETE AVENIDA SANTANDER,MONTERIA,160100,2017/11/29,ACTIVA,2025/03/20,2025,8.7442007,-75.8973809,"Cl. 5 #2a-4, Montería, Córdoba, Colombia",8.7442007,-75.8973809,"Cl. 5 #2a-4, Montería, Córdoba, Colombia"
TIENDA ARA 504 SAN BERNARDO DEL VIENTO,MONTERIA,167230,2018/10/12,ACTIVA,2025/03/20,2025,8.742265,-75.8837429,"Av. Circunvalar, Montería, Córdoba, Colombia",8.742265,-75.8837429,"Av. Circunvalar, Montería, Córdoba, Colombia"
TIENDA ARA 0067 CALARCA COLON,ARMENIA,195938,2014/10/21,ACTIVA,2025/03/21,2025,4.5214265,-75.6488826,"Av. Colón, Calarcá, Quindío, Calarcá, Colombia",4.5214265,-75.6488826,"Av. Colón, Calarcá, Quindío, Calarcá, Colombia"
TIENDA ARA 0872 CUCUTA SAN LUIS,CUCUTA,419367,2022/05/23,ACTIVA,2025/03/21,2025,7.893155399999999,-72.4828903,"Av. Demetrio Mendoza #12-47, San Luis, Cúcuta, Norte de Santander, Colombia",7.893155399999999,-72.4828903,"Av. Demetrio Mendoza #12-47, San Luis, Cúcuta, Norte de Santander, Colombia"
TIENDA ARA 1022 CUCUTA QUINTA ORIENTAL,CUCUTA,462285,2024/07/26,ACTIVA,2025/03/21,2025,7.896793000000001,-72.4904306,"Av. Guaimaral #4, Barrio 20 de Diciembre, Cúcuta, Norte de Santander, Colombia",7.896793000000001,-72.4904306,"Av. Guaimaral #4, Barrio 20 de Diciembre, Cúcuta, Norte de Santander, Colombia"
TIENDA ARA 0457 TUNJA MALDONADO,TUNJA,161827,2018/07/25,ACTIVA,2025/03/25,2025,5.542583899999999,-73.3593198,"Av. Maldonado #1019, Tunja, Boyacá, Colombia",5.542583899999999,-73.3593198,"Av. Maldonado #1019, Tunja, Boyacá, Colombia"
TIENDA ARA 0296 FUSAGASUGA CENTRO CALLE 8,BOGOTA,2934452,2018/03/16,ACTIVA,2025/03/20,2025,4.3423942,-74.36431739999999,"Cl 8 #32, Sabaneta, Fusagasugá, Cundinamarca, Colombia",4.3423942,-74.36431739999999,"Cl 8 #32, Sabaneta, Fusagasugá, Cundinamarca, Colombia"
TIENDA ARA 0366 FUSAGASUGA CARRERA 6,BOGOTA,2857271,2017/08/18,ACTIVA,2025/03/20,2025,4.331915,-74.3749553,"Av. Manuel Humberto #24-433 a 24-269, Fusagasugá, Cundinamarca, Colombia",4.331915,-74.3749553,"Av. Manuel Humberto #24-433 a 24-269, Fusagasugá, Cundinamarca, Colombia"
TIENDA ARA 1626 FUSAGASUGÁ CENTRO COMERCIAL JARDÍN,BOGOTA,3967429,2025/05/27,ACTIVA,2025/05/27,2025,4.331915,-74.3749553,"Av. Manuel Humberto #24-433 a 24-269, Fusagasugá, Cundinamarca, Colombia",4.331915,-74.3749553,"Av. Manuel Humberto #24-433 a 24-269, Fusagasugá, Cundinamarca, Colombia"
TIENDA ARA 1662 FUSAGASUGÁ PARQUE PRINCIPAL,BOGOTA,3968326,2025/05/29,ACTIVA,2025/05/29,2025,4.331915,-74.3749553,"Av. Manuel Humberto #24-433 a 24-269, Fusagasugá, Cundinamarca, Colombia",4.331915,-74.3749553,"Av. Manuel Humberto #24-433 a 24-269, Fusagasugá, Cundinamarca, Colombia"
TIENDA ARA 626 LA VENTA FUSAGASUGÁ,BOGOTA,3155097,2019/08/21,ACTIVA,2025/03/20,2025,4.331915,-74.3749553,"Av. Manuel Humberto #24-433 a 24-269, Fusagasugá, Cundinamarca, Colombia",4.331915,-74.3749553,"Av. Manuel Humberto #24-433 a 24-269, Fusagasugá, Cundinamarca, Colombia"
TIENDA ARA 1056 POPAYAN ARBOLEDA CALLE 60 N,CAUCA,230550,2023/02/23,ACTIVA,2025/03/20,2025,2.4813215,-76.572801,"Av. Panamericana #63 Norte-1 a 63 Norte-181, Popayán, Cauca, Colombia",2.4813215,-76.572801,"Av. Panamericana #63 Norte-1 a 63 Norte-181, Popayán, Cauca, Colombia"
TIENDA ARA 0898 CALI ALAMEDA AV ROOSVELT,CALI,1154679,2022/06/06,ACTIVA,2025/03/20,2025,3.4328916,-76.5390218,"Av. Roosevelt #27-36, 3 de Julio, Cali, Valle del Cauca, Colombia",3.4328916,-76.5390218,"Av. Roosevelt #27-36, 3 de Julio, Cali, Valle del Cauca, Colombia"
TIENDA ARA 0042 VITERBO,MANIZALES,165207,2014/05/29,ACTIVA,2025/03/20,2025,5.0613925,-75.8740637,"Cra. 7 #9 - 10, Viterbo, Caldas, Colombia",5.0613925,-75.8740637,"Cra. 7 #9 - 10, Viterbo, Caldas, Colombia"
TIENDA ARA 0045 MANIZALES,MANIZALES,166188,2014/07/30,ACTIVA,2025/03/20,2025,5.0585201,-75.4867751,"Av. Santander #62-65, Manizales, Caldas, Colombia",5.0585201,-75.4867751,"Av. Santander #62-65, Manizales, Caldas, Colombia"
TIENDA ARA 0066 EL RETIRO,MANIZALES,169078,2014/12/01,ACTIVA,2025/03/20,2025,5.0645595,-75.5088031,"Cra. 27 #36-47, Manizales, Caldas, Colombia",5.0645595,-75.5088031,"Cra. 27 #36-47, Manizales, Caldas, Colombia"
TIENDA ARA 0085 MANIZALES ALTA SUIZA,MANIZALES,176134,2015/11/20,ACTIVA,2025/03/20,2025,5.0585201,-75.4867751,"Av. Santander #62-65, Manizales, Caldas, Colombia",5.0585201,-75.4867751,"Av. Santander #62-65, Manizales, Caldas, Colombia"
TIENDA ARA 0996 VALLEDUPAR SAN MARTIN,VALLEDUPAR,195223,2022/10/13,ACTIVA,2025/03/21,2025,10.4463818,-73.2433561,"Av. Simón Bolívar #43-90, Valledupar, Cesar, Colombia",10.4463818,-73.2433561,"Av. Simón Bolívar #43-90, Valledupar, Cesar, Colombia"
TIENDA ARA 0074 GRANADA,ARMENIA,196287,2014/11/19,ACTIVA,2025/03/21,2025,4.747118,-74.048846,"Cl. 166 #46-53, Bogotá, Colombia",4.747118,-74.048846,"Cl. 166 #46-53, Bogotá, Colombia"
TIENDA ARA 1175 BUCARAMANGA UNIVERSIDAD,BUCARAMANGA,9000634280,2022/11/23,ACTIVA,2025/03/21,2025,7.1342078,-73.11850849999999,"Ave Eduardo Santos #28-93, Bucaramanga, Santander, Colombia",7.1342078,-73.11850849999999,"Ave Eduardo Santos #28-93, Bucaramanga, Santander, Colombia"
TIENDA ARA 1094 CALI AVENIDA 3 NORTE,CALI,1169320,2022/10/28,ACTIVA,2025/03/20,2025,3.4861134,-76.51176029999999,"Avenida 3 Norte con, Cl. 57 Nte., Cali, Valle del Cauca, Colombia",3.4861134,-76.51176029999999,"Avenida 3 Norte con, Cl. 57 Nte., Cali, Valle del Cauca, Colombia"
TIENDA ARA 437 CALI LOS ALAMOS,CALI,1012631,2018/03/31,ACTIVA,2025/03/20,2025,3.4861134,-76.51176029999999,"Avenida 3 Norte con, Cl. 57 Nte., Cali, Valle del Cauca, Colombia",3.4861134,-76.51176029999999,"Avenida 3 Norte con, Cl. 57 Nte., Cali, Valle del Cauca, Colombia"
TIENDA ARA 0321 BARRANQUILLA CARIBE VERDE,BARRANQUILLA,677990,2017/06/27,ACTIVA,2025/03/21,2025,10.9489032,-74.77502319999999,"Avenida Circunvalar &, Cra. 9, Sur Orient, Barranquilla, Atlántico, Colombia",10.9489032,-74.77502319999999,"Avenida Circunvalar &, Cra. 9, Sur Orient, Barranquilla, Atlántico, Colombia"
TIENDA ARA 0860 MAGANGUE PASTRANA,MAGANGUE,50941,2021/11/22,ACTIVA,2025/03/20,2025,9.2370006,-74.7464363,"Avenida Colombia # 13 B - 25, Magangué, Bolívar, Colombia",9.2370006,-74.7464363,"Avenida Colombia # 13 B - 25, Magangué, Bolívar, Colombia"
TIENDA ARA 1106 BUENAVENTURA PERLA DEL PACIFICO,BUENAVENTURA,194225,2022/11/24,ACTIVA,2025/03/21,2025,3.8696669,-76.9807951,"BARRIO CABAL POMBO, AVENIDA SIMÓN BOLÍVAR CALLE 1 #83-29, Buenaventura, Valle del Cauca, Colombia",3.8696669,-76.9807951,"BARRIO CABAL POMBO, AVENIDA SIMÓN BOLÍVAR CALLE 1 #83-29, Buenaventura, Valle del Cauca, Colombia"
TIENDA ARA 899 BARRANCABERMEJA BOSTON,BARRANCABERMEJA,133622,2022/11/18,ACTIVA,2025/03/21,2025,7.074232299999999,-73.8253325,"Barrancabermeja, Santander, Colombia",7.074232299999999,-73.8253325,"Barrancabermeja, Santander, Colombia"
TIENDA ARA 1317 CALI BOCHALEMA CALLE 48,CALI,1203180,2023/11/02,ACTIVA,2025/03/20,2025,3.3563115,-76.51881399999999,"Barrio Bochalema, Comuna 17, Cali, Valle del Cauca, Colombia",3.3563115,-76.51881399999999,"Barrio Bochalema, Comuna 17, Cali, Valle del Cauca, Colombia"
TIENDA ARA 0844 CUCUTA LA CEIBA,CUCUTA,413478,2022/03/04,ACTIVA,2025/03/21,2025,7.902839399999999,-72.4972326,"Barrio Ceiba 2, Cúcuta, Norte de Santander, Colombia",7.902839399999999,-72.4972326,"Barrio Ceiba 2, Cúcuta, Norte de Santander, Colombia"
TIENDA ARA 0241 CARTAGENA EL POZON,CARTAGENA,36898102,2016/10/27,ACTIVA,2025/03/21,2025,10.4055158,-75.45438639999999,"Barrio el Pozón mz 41, Provincia de Cartagena, Bolívar, Colombia",10.4055158,-75.45438639999999,"Barrio el Pozón mz 41, Provincia de Cartagena, Bolívar, Colombia"
TIENDA ARA 0800 MONTERIA FURATENA,MONTERIA,193313,2021/11/25,ACTIVA,2025/03/20,2025,8.720766099999999,-75.889984,"Barrio furatena, finca, La Gloria, Montería, Córdoba, Colombia",8.720766099999999,-75.889984,"Barrio furatena, finca, La Gloria, Montería, Córdoba, Colombia"
TIENDA ARA 0906 LA APARTADA TRONCAL,MONTERIA,195850,2022/03/16,ACTIVA,2025/03/20,2025,8.757543,-75.8722159,"Cl. 41 # 14 - 281, Montería, Córdoba, Colombia",8.757543,-75.8722159,"Cl. 41 # 14 - 281, Montería, Córdoba, Colombia"
TIENDA ARA 1694 NILO BASE MILITAR TOLEMAIDA,GIRARDOT,123487,2025/06/04,ACTIVA,2025/06/04,2025,4.293712999999999,-74.8076516,"Cra. 10 #N° 13 - 23, Girardot, Cundinamarca, Colombia",4.293712999999999,-74.8076516,"Cra. 10 #N° 13 - 23, Girardot, Cundinamarca, Colombia"
TIENDA ARA 0439 BOGOTA SANTA HELENITA,BOGOTA,2913158,2018/02/01,ACTIVA,2025/03/20,2025,4.6937403,-74.10299289999999,"Bogotá, Colombia",4.6937403,-74.10299289999999,"Bogotá, Colombia"
TIENDA ARA 0671 BOGOTÁ SUBA LOS NARANJOS,BOGOTA,3315586,2020/12/02,ACTIVA,2025/03/20,2025,4.7249617,-74.0888987,"Bogotá, Colombia",4.7249617,-74.0888987,"Bogotá, Colombia"
TIENDA ARA 0887 BOGOTA USME MONTEBLANCO,BOGOTA,3463109,2021/12/17,ACTIVA,2025/03/20,2025,4.5025059,-74.1162325,"Bogotá, Colombia",4.5025059,-74.1162325,"Bogotá, Colombia"
TIENDA ARA 1213 BOGOTA SUBA RINCON DE SAN JORGE,BOGOTA,3610708,2022/11/25,ACTIVA,2025/03/20,2025,4.7323887,-74.090173,"Cl 132 #94c-38, Bogotá, Colombia",4.7323887,-74.090173,"Cl 132 #94c-38, Bogotá, Colombia"
TIENDA ARA 1459 BOGOTÁ USAQUÉN CENTRO COMERCIAL CEDRITOS,BOGOTA,3790552,2024/03/04,ACTIVA,2025/03/20,2025,4.7317705,-74.0419235,"Bogotá, Colombia",4.7317705,-74.0419235,"Bogotá, Colombia"
TIENDA ARA 1525 BOGOTÁ SUBA RINCON,BOGOTA,3824577,2024/05/23,ACTIVA,2025/03/21,2025,4.7249617,-74.0888987,"Bogotá, Colombia",4.7249617,-74.0888987,"Bogotá, Colombia"
TIENDA ARA 1542 BOGOTA BOSA LA INDEPENDENCIA,BOGOTA,3824547,2024/05/23,ACTIVA,2025/03/21,2025,4.620297,-74.19789349999999,"Bogotá, Colombia",4.620297,-74.19789349999999,"Bogotá, Colombia"
TIENDA ARA 0894 BOGOTA BOSA CHICALA,BOGOTA,3463679,2021/12/21,ACTIVA,2025/03/20,2025,4.6236345,-74.1791205,"Bosa, Bogotá, Colombia",4.6236345,-74.1791205,"Bosa, Bogotá, Colombia"
TIENDA ARA 1639 BOGOTÁ KENNEDY CHICALA,BOGOTA,3939257,2025/03/20,ACTIVA,2025/03/20,2025,4.6236345,-74.1791205,"Bosa, Bogotá, Colombia",4.6236345,-74.1791205,"Bosa, Bogotá, Colombia"
TIENDA ARA 1143 BUCARAMANGA ALFONSO LOPEZ,BUCARAMANGA,9000634275,2022/11/23,ACTIVA,2025/03/21,2025,7.111824200000001,-73.13076769999999,"Cl. 45 #761, García Rovira, Bucaramanga, Santander, Colombia",7.111824200000001,-73.13076769999999,"Cl. 45 #761, García Rovira, Bucaramanga, Santander, Colombia"
TIENDA ARA 1206 BUENAVISTA CENTRO SUCRE,MAGANGUE,53394,2022/11/21,CANCELADA,2024/03/11,2024,9.3195389,-74.9733356,"Buenavista, Sucre, Colombia",9.3195389,-74.9733356,"Buenavista, Sucre, Colombia"
TIENDA ARA 0856 COVEÑAS TRONCAL CARIBE,SINCELEJO,128120,2022/06/15,ACTIVA,2025/03/21,2025,9.4039979,-75.6637315,"C 10 10E 588, Coveñas, Sucre, Colombia",9.4039979,-75.6637315,"C 10 10E 588, Coveñas, Sucre, Colombia"
TIENDA ARA 1014 NEIVA ALTICO,HUILA,380657,2022/11/17,ACTIVA,2025/03/21,2025,2.9298387,-75.2829683,"C. 8 #1161, Neiva, Huila, Colombia",2.9298387,-75.2829683,"C. 8 #1161, Neiva, Huila, Colombia"
TIENDA ARA 0984 NEIVA CENTRO CALLE 8,HUILA,380662,2022/11/17,ACTIVA,2025/03/21,2025,2.9275195,-75.2874605,"C. 8 #410010, Neiva, Huila, Colombia",2.9275195,-75.2874605,"C. 8 #410010, Neiva, Huila, Colombia"
TIENDA ARA 1102 NEIVA IPANEMA,HUILA,380664,2022/11/17,ACTIVA,2025/03/21,2025,2.932474,-75.252557,"C. 8 #46-171, Neiva, Huila, Colombia",2.932474,-75.252557,"C. 8 #46-171, Neiva, Huila, Colombia"
TIENDA ARA 0543 BOGOTA 20 DE JULIO SAN CRISTOBAL,BOGOTA,3043766,2018/12/06,ACTIVA,2025/03/20,2025,4.57137,-74.0931682,"Cl. 23 Sur #6-29, Bogotá, Colombia",4.57137,-74.0931682,"Cl. 23 Sur #6-29, Bogotá, Colombia"
TIENDA ARA 1615 BOGOTÁ SAN CRISTÓBAL CC 20 DE JULIO,BOGOTA,3976614,2025/06/19,ACTIVA,2025/06/19,2025,4.57137,-74.0931682,"Cl. 23 Sur #6-29, Bogotá, Colombia",4.57137,-74.0931682,"Cl. 23 Sur #6-29, Bogotá, Colombia"
TIENDA ARA 0972 POPAYAN EL PLACER,CAUCA,225763,2022/08/26,ACTIVA,2025/03/20,2025,2.4564213,-76.59184979999999,"Cl. 25 Nte., Popayán, Cauca, Colombia",2.4564213,-76.59184979999999,"Cl. 25 Nte., Popayán, Cauca, Colombia"
TIENDA ARA 1624 COTA CEDRO MALL,BOGOTA,3953101,2025/04/23,ACTIVA,2025/04/23,2025,4.80284,-74.1082737,"CC Cedro Mall, Cra. 5 #1 - 97, Cota, Cundinamarca, Colombia",4.80284,-74.1082737,"CC Cedro Mall, Cra. 5 #1 - 97, Cota, Cundinamarca, Colombia"
TIENDA ARA 1016 BOGOTA ENGATIVA UNICENTRO,BOGOTA,3597392,2022/10/19,ACTIVA,2025/03/20,2025,4.7228173,-74.1140763,"CC Unicentro de Occidente, Cra. 111c #86-74 local 1-33, Engativá, Bogotá, Cundinamarca, Colombia",4.7228173,-74.1140763,"CC Unicentro de Occidente, Cra. 111c #86-74 local 1-33, Engativá, Bogotá, Cundinamarca, Colombia"
TIENDA ARA 0068 APIA PLAZA PRINCIPAL,PEREIRA,18119834,2014/11/11,ACTIVA,2025/03/20,2025,4.808261,-75.6913885,"CENTRO COMERCIAL PEREIRA PLAZA, Centro Comercial, Cl 15 #13 110 LC 112, Pereira, Risaralda, Colombia",4.808261,-75.6913885,"CENTRO COMERCIAL PEREIRA PLAZA, Centro Comercial, Cl 15 #13 110 LC 112, Pereira, Risaralda, Colombia"
TIENDA ARA 0078 SAN CAMILO,PEREIRA,18120169,2014/11/25,ACTIVA,2025/03/20,2025,4.8154271,-75.7030292,"Cra. 7 #29 - 49, Pereira, Risaralda, Colombia",4.8154271,-75.7030292,"Cra. 7 #29 - 49, Pereira, Risaralda, Colombia"
TIENDA ARA 0095 SANTUARIO PLAZA PRINCIPAL,PEREIRA,18123992,2015/05/22,ACTIVA,2025/03/20,2025,4.808261,-75.6913885,"CENTRO COMERCIAL PEREIRA PLAZA, Centro Comercial, Cl 15 #13 110 LC 112, Pereira, Risaralda, Colombia",4.808261,-75.6913885,"CENTRO COMERCIAL PEREIRA PLAZA, Centro Comercial, Cl 15 #13 110 LC 112, Pereira, Risaralda, Colombia"
TIENDA ARA 1501 PEREIRA KENNEDY AVENIDA SANTANDER,PEREIRA,18223478,2024/12/05,ACTIVA,2025/03/20,2025,4.808261,-75.6913885,"CENTRO COMERCIAL PEREIRA PLAZA, Centro Comercial, Cl 15 #13 110 LC 112, Pereira, Risaralda, Colombia",4.808261,-75.6913885,"CENTRO COMERCIAL PEREIRA PLAZA, Centro Comercial, Cl 15 #13 110 LC 112, Pereira, Risaralda, Colombia"
TIENDA ARA 1679 PEREIRA PLAZA,PEREIRA,18228850,2025/06/13,ACTIVA,2025/06/13,2025,4.808261,-75.6913885,"CENTRO COMERCIAL PEREIRA PLAZA, Centro Comercial, Cl 15 #13 110 LC 112, Pereira, Risaralda, Colombia",4.808261,-75.6913885,"CENTRO COMERCIAL PEREIRA PLAZA, Centro Comercial, Cl 15 #13 110 LC 112, Pereira, Risaralda, Colombia"
TIENDA ARA 382 PEREIRA FERNANDO VELEZ,PEREIRA,18170375,2019/11/27,ACTIVA,2025/03/20,2025,4.8078882,-75.6791775,"Parque La Rebeca, Av. Circunvalar #1 - 81, Pereira, Risaralda, Colombia",4.8078882,-75.6791775,"Parque La Rebeca, Av. Circunvalar #1 - 81, Pereira, Risaralda, Colombia"
TIENDA ARA 603 GALICIA PLAZA PEREIRA,PEREIRA,18168236,2019/09/19,ACTIVA,2025/03/20,2025,4.811383999999999,-75.79678059999999,"Mall Com, Vía Parque Consotá-Galicia, Pereira, Risaralda, Colombia",4.811383999999999,-75.79678059999999,"Mall Com, Vía Parque Consotá-Galicia, Pereira, Risaralda, Colombia"
TIENDA ARA 1598 CALI MONTEBELLO CALLE 12 OESTE,CALI,1238223,2024/11/27,ACTIVA,2025/03/20,2025,3.4445047,-76.5093282,"Cra. 15 #3317-44, Comuna 8, Cali, Valle del Cauca, Colombia",3.4445047,-76.5093282,"Cra. 15 #3317-44, Comuna 8, Cali, Valle del Cauca, Colombia"
TIENDA ARA 1570 CAJICÁ-HATO GRANDE,BOGOTA,3882251,2024/10/17,ACTIVA,2025/03/21,2025,4.9075592,-74.0210895,"Cajicá, Cundinamarca, Colombia",4.9075592,-74.0210895,"Cajicá, Cundinamarca, Colombia"
TIENDA ARA 0069 BARCELONA,ARMENIA,195896,2014/10/21,ACTIVA,2025/03/21,2025,4.4278295,-75.7189191,"Calarcá-Barcelona, Barcelona, Calarcá, Quindío, Colombia",4.4278295,-75.7189191,"Calarcá-Barcelona, Barcelona, Calarcá, Quindío, Colombia"
TIENDA ARA 0145 MAGANGUE MONTECARLO,MAGANGUE,37540,2016/01/27,ACTIVA,2025/03/20,2025,9.2433257,-74.7562334,"Cale 17 # 6A - 57, Magangué, Bolívar, Colombia",9.2433257,-74.7562334,"Cale 17 # 6A - 57, Magangué, Bolívar, Colombia"
TIENDA ARA 1485 CALI VALLE GRANDE CALLE 85,CALI,1233944,2024/10/03,ACTIVA,2025/03/20,2025,3.435696,-76.4682069,"Cali, Valle del Cauca, Colombia",3.435696,-76.4682069,"Cali, Valle del Cauca, Colombia"
TIENDA ARA 397 CALI VALLE GRANDE,CALI,1001181,2017/11/16,ACTIVA,2025/03/20,2025,3.435696,-76.4682069,"Cali, Valle del Cauca, Colombia",3.435696,-76.4682069,"Cali, Valle del Cauca, Colombia"
TIENDA ARA 474 RICAURTE PEÑALISA,GIRARDOT,89161,2018/05/24,ACTIVA,2025/03/20,2025,4.2953975,-74.7870174,"Calle 10 # 5-215, Ricaurte, Cundinamarca, Colombia",4.2953975,-74.7870174,"Calle 10 # 5-215, Ricaurte, Cundinamarca, Colombia"
TIENDA ARA 569 PALMIRA ROZO,PALMIRA,127200,2019/08/01,ACTIVA,2025/03/20,2025,3.6144668,-76.3866855,"Calle 10 #09-61, Rozo, Palmira, Valle del Cauca, Colombia",3.6144668,-76.3866855,"Calle 10 #09-61, Rozo, Palmira, Valle del Cauca, Colombia"
TIENDA ARA 0831 PUERTO LIBERTADOR TRONCAL,MONTERIA,193634,2021/12/14,ACTIVA,2025/03/20,2025,7.888088299999999,-75.66834039999999,"Calle 10 #Cra. 13, Puerto Libertador, Córdoba, Colombia",7.888088299999999,-75.66834039999999,"Calle 10 #Cra. 13, Puerto Libertador, Córdoba, Colombia"
TIENDA ARA 1297 APARTADO ALFONSO LOPEZ,URABA,114714,2023/06/05,ACTIVA,2025/03/21,2025,7.875842599999999,-76.6143472,"Calle 100 #79-08, Apartadó, Antioquia, Colombia",7.875842599999999,-76.6143472,"Calle 100 #79-08, Apartadó, Antioquia, Colombia"
TIENDA ARA 1071 CÚCUTA GUAIMARAL,CUCUTA,431074,2022/11/23,ACTIVA,2025/03/21,2025,7.911214800000001,-72.4923866,"Calle 11N #11AE-39, Cúcuta, Norte de Santander, Colombia",7.911214800000001,-72.4923866,"Calle 11N #11AE-39, Cúcuta, Norte de Santander, Colombia"
TIENDA ARA 0310 BOGOTA SAN CRISTOBAL SUR,BOGOTA,2854743,2017/08/15,ACTIVA,2025/03/20,2025,4.5719674,-74.08261259999999,"Calle 17A Sur # 6 - 18 Este, Bogotá, Colombia",4.5719674,-74.08261259999999,"Calle 17A Sur # 6 - 18 Este, Bogotá, Colombia"
TIENDA ARA 1233 BOGOTA SAN CRISTOBAL SUR VILLA JAVIER,BOGOTA,3610697,2022/11/25,ACTIVA,2025/03/20,2025,4.5719674,-74.08261259999999,"Calle 17A Sur # 6 - 18 Este, Bogotá, Colombia",4.5719674,-74.08261259999999,"Calle 17A Sur # 6 - 18 Este, Bogotá, Colombia"
TIENDA ARA 1448 BOGOTA SAN CRISTOBAL SUR ALTOS DEL VIRREY,BOGOTA,3810826,2024/04/18,ACTIVA,2025/03/20,2025,4.5719674,-74.08261259999999,"Calle 17A Sur # 6 - 18 Este, Bogotá, Colombia",4.5719674,-74.08261259999999,"Calle 17A Sur # 6 - 18 Este, Bogotá, Colombia"
TIENDA ARA 0867 SOACHA RICAURTE,BOGOTA,3456969,2021/11/23,ACTIVA,2025/03/20,2025,4.5792679,-74.2133319,"Calle 18 Sur #2 - 37, Soacha, Cundinamarca, Colombia",4.5792679,-74.2133319,"Calle 18 Sur #2 - 37, Soacha, Cundinamarca, Colombia"
TIENDA ARA 0148 BARRANQUILLA SIMON BOLIVAR,BARRANQUILLA,645382,2016/05/02,ACTIVA,2025/03/21,2025,10.9360597,-74.78006400000001,"Calle 19 # 1C -20, Barranquilla, Atlántico, Colombia",10.9360597,-74.78006400000001,"Calle 19 # 1C -20, Barranquilla, Atlántico, Colombia"
TIENDA ARA 0552 VILLAVICENCIO SAN DIEGO,VILLAVICENCIO,343014,2018/12/10,ACTIVA,2025/03/20,2025,4.1167521,-73.59512889999999,"Calle 19 Sur # 13 - 32 Este, Villavicencio, Meta, Colombia",4.1167521,-73.59512889999999,"Calle 19 Sur # 13 - 32 Este, Villavicencio, Meta, Colombia"
TIENDA ARA 1230 NEIVA GUADUALES,HUILA,380682,2022/11/17,ACTIVA,2025/03/21,2025,,,,,,
TIENDA ARA 0280 MONTERIA CHUCHURUBI,MONTERIA,156812,2017/06/28,ACTIVA,2025/03/20,2025,8.7557595,-75.8854097,"Calle 29 Carrera 4 # 4-08 Lote A - B Chuchurribi, Montería, Córdoba, Colombia",8.7557595,-75.8854097,"Calle 29 Carrera 4 # 4-08 Lote A - B Chuchurribi, Montería, Córdoba, Colombia"
TIENDA ARA 0377 CHINU,MONTERIA,159031,2017/10/05,ACTIVA,2025/03/20,2025,8.7557595,-75.8854097,"Calle 29 Carrera 4 # 4-08 Lote A - B Chuchurribi, Montería, Córdoba, Colombia",8.7557595,-75.8854097,"Calle 29 Carrera 4 # 4-08 Lote A - B Chuchurribi, Montería, Córdoba, Colombia"
TIENDA ARA 0071 BARRIO LA UNION,ARMENIA,195912,2014/10/22,ACTIVA,2025/03/21,2025,4.5345615,-75.68721339999999,"Calle 29 No. 332 a 33-76, Armenia, Quindío, Colombia",4.5345615,-75.68721339999999,"Calle 29 No. 332 a 33-76, Armenia, Quindío, Colombia"
TIENDA ARA 0311 GUADUAS CENTRO,HONDA,69645,2020/09/07,ACTIVA,2025/03/21,2025,5.069296899999999,-74.59935999999999,"Calle 3 53, # 4, Guaduas, Cundinamarca, Colombia",5.069296899999999,-74.59935999999999,"Calle 3 53, # 4, Guaduas, Cundinamarca, Colombia"
TIENDA ARA 0380 GUADUAS CENTRO,HONDA,64315,2018/09/11,CANCELADA,2018/09/11,2018,5.069296899999999,-74.59935999999999,"Calle 3 53, # 4, Guaduas, Cundinamarca, Colombia",5.069296899999999,-74.59935999999999,"Calle 3 53, # 4, Guaduas, Cundinamarca, Colombia"
TIENDA ARA 0177 PUERTO COLOMBIA SAN CARLOS,BARRANQUILLA,653194,2016/08/16,ACTIVA,2025/03/21,2025,11.0035083,-74.95061249999999,"Calle 3 A # 25 - 135 Lote 7 Casa 1, Puerto Colombia, Atlántico, Colombia",11.0035083,-74.95061249999999,"Calle 3 A # 25 - 135 Lote 7 Casa 1, Puerto Colombia, Atlántico, Colombia"
TIENDA ARA 1402 BOGOTA SAN CRISTOBAL SUR ALPES,BOGOTA,3799387,2024/03/20,ACTIVA,2025/03/21,2025,4.553207,-74.0859241,"Calle 34 Sur #8-58, Bogotá, Colombia",4.553207,-74.0859241,"Calle 34 Sur #8-58, Bogotá, Colombia"
TIENDA ARA 0291 SOLEDAD MANUELA BELTRAN,BARRANQUILLA,673741,2017/05/04,ACTIVA,2025/03/21,2025,10.8978126,-74.7883744,"a 50-389, Cra. 6 #50-285, Soledad, Atlántico, Colombia",10.8978126,-74.7883744,"a 50-389, Cra. 6 #50-285, Soledad, Atlántico, Colombia"
TIENDA ARA 0895 VILLAVICENCIO LA GRACIELITA,VILLAVICENCIO,407726,2021/12/30,ACTIVA,2025/03/20,2025,4.1339912,-73.58942480000002,"Calle 4 A # 13 - 24, Villavicencio, Meta, Colombia",4.1339912,-73.58942480000002,"Calle 4 A # 13 - 24, Villavicencio, Meta, Colombia"
TIENDA ARA 0446 LA DORADA CENTRO,LA DORADA,52268,2018/07/24,ACTIVA,2025/03/20,2025,5.4524208,-74.663918,"Cra. 4 #13-2 a 13-100, La Dorada, Caldas, Colombia",5.4524208,-74.663918,"Cra. 4 #13-2 a 13-100, La Dorada, Caldas, Colombia"
TIENDA ARA 1055 CALDAS LA DORADA LAS FERIAS,LA DORADA,64966,2022/11/30,ACTIVA,2025/03/20,2025,5.4789325,-74.6753004,"Calle 47, La Dorada, Caldas, Colombia",5.4789325,-74.6753004,"Calle 47, La Dorada, Caldas, Colombia"
TIENDA ARA 0161 SOLEDAD LA INMACULADA,BARRANQUILLA,645506,2016/05/04,ACTIVA,2025/03/21,2025,10.9069083,-74.7921949,"Calle 54 # 13 C - 53, Soledad la Inmaculada, Soledad, Atlántico, Colombia",10.9069083,-74.7921949,"Calle 54 # 13 C - 53, Soledad la Inmaculada, Soledad, Atlántico, Colombia"
TIENDA ARA 0147 SOLEDAD EL MANANTIAL,BARRANQUILLA,634651,2015/11/17,ACTIVA,2025/03/21,2025,10.9040084,-74.8022356,"Calle 63 # 5 - 45, Soledad, Atlántico, Colombia",10.9040084,-74.8022356,"Calle 63 # 5 - 45, Soledad, Atlántico, Colombia"
TIENDA ARA 0389 CARTAGENA SANTA MONICA,CARTAGENA,38672702,2017/11/30,ACTIVA,2025/03/21,2025,10.3886597,-75.4810569,"Calle 71 #26-30, Santa Mónica, Cartagena de Indias, Provincia de Cartagena, Bolívar, Colombia",10.3886597,-75.4810569,"Calle 71 #26-30, Santa Mónica, Cartagena de Indias, Provincia de Cartagena, Bolívar, Colombia"
TIENDA ARA 0652 BARRANQUILLA EL GOLF,BARRANQUILLA,772480,2020/10/22,ACTIVA,2025/03/21,2025,11.010936,-74.80846190000001,"Calle 81, Cra. 59c, Barranquilla, Atlántico, Colombia",11.010936,-74.80846190000001,"Calle 81, Cra. 59c, Barranquilla, Atlántico, Colombia"
TIENDA ARA 0914 CAUCA PIENDAMO CENTRO CALLE 8,CAUCA,222247,2022/05/03,ACTIVA,2025/03/20,2025,2.6393053,-76.5284844,"Calle 8ª, Piendamó, Cauca, Colombia",2.6393053,-76.5284844,"Calle 8ª, Piendamó, Cauca, Colombia"
TIENDA ARA 0539 APULO CENTRO,GIRARDOT,91203,2018/11/09,ACTIVA,2025/03/20,2025,4.3082326,-74.7988161,"252437, Dg. 8 #32 85, Girardot, Cundinamarca, Colombia",4.3082326,-74.7988161,"252437, Dg. 8 #32 85, Girardot, Cundinamarca, Colombia"
TIENDA ARA 0879 VILLAVICENCIO LA MADRID,VILLAVICENCIO,407642,2021/12/22,ACTIVA,2025/03/20,2025,4.0584538,-73.6723481,"Calle 92 Sur, Villavicencio, Meta, Colombia",4.0584538,-73.6723481,"Calle 92 Sur, Villavicencio, Meta, Colombia"
TIENDA ARA 0376 CARTAGENA LA MATUNA,CARTAGENA,38677102,2017/12/01,ACTIVA,2025/03/21,2025,10.4236311,-75.5479095,"Calle de la mantilla #3 #32 B centro, La Matuna, Cartagena de Indias, Provincia de Cartagena, Bolívar, Colombia",10.4236311,-75.5479095,"Calle de la mantilla #3 #32 B centro, La Matuna, Cartagena de Indias, Provincia de Cartagena, Bolívar, Colombia"
TIENDA ARA 1021 CARTAGENA BOSTON ALCIBIA,CARTAGENA,47407702,2023/01/23,ACTIVA,2025/03/21,2025,10.4091653,-75.5148241,"Camino del Medio, Cl. 31 #39-33, María Auxiliadora, Cartagena de Indias, Provincia de Cartagena, Bolívar, Colombia",10.4091653,-75.5148241,"Camino del Medio, Cl. 31 #39-33, María Auxiliadora, Cartagena de Indias, Provincia de Cartagena, Bolívar, Colombia"
TIENDA ARA 0347 MONTERIA EL DORADO,MONTERIA,159035,2017/10/05,ACTIVA,2025/03/20,2025,8.7602023,-75.8956061,"Carrera 10 W # 26 - 04 Lote 2, Montería, El Dorado, Córdoba, Colombia",8.7602023,-75.8956061,"Carrera 10 W # 26 - 04 Lote 2, Montería, El Dorado, Córdoba, Colombia"
TIENDA ARA 1585 BOGOTA SAN CRISTOBAL ALTAMIRA,BOGOTA,3867089,2024/09/06,ACTIVA,2025/03/21,2025,4.5440594,-74.08811829999999,"Carrera 11 Este #43 b30 sur, Cra. 11 Este #43b30 sur, Bogotá, Colombia",4.5440594,-74.08811829999999,"Carrera 11 Este #43 b30 sur, Cra. 11 Este #43b30 sur, Bogotá, Colombia"
TIENDA ARA 0091 BUGA CENTRO,BUGA,58012,2014/12/18,ACTIVA,2025/03/21,2025,3.9013052,-76.300013,"Carrera 13 No 8 - 69 (Centro), Buga, Valle, Colombia",3.9013052,-76.300013,"Carrera 13 No 8 - 69 (Centro), Buga, Valle, Colombia"
TIENDA ARA 0100 BUGA,BUGA,59560,2015/07/15,ACTIVA,2025/03/21,2025,3.9013052,-76.300013,"Carrera 13 No 8 - 69 (Centro), Buga, Valle, Colombia",3.9013052,-76.300013,"Carrera 13 No 8 - 69 (Centro), Buga, Valle, Colombia"
TIENDA ARA 0455 BARRANQUILLA LA VICTORIA,BARRANQUILLA,710679,2018/07/17,ACTIVA,2025/03/21,2025,10.9913039,-74.78426759999999,"Cra. 52 #46-48, Nte. Centro Historico, Barranquilla, Atlántico, Colombia",10.9913039,-74.78426759999999,"Cra. 52 #46-48, Nte. Centro Historico, Barranquilla, Atlántico, Colombia"
TIENDA ARA 0670 BARRANQUILLA LA UNION,BARRANQUILLA,764075,2020/07/27,ACTIVA,2025/03/21,2025,10.9517059,-74.78845989999999,"Carrera 14 #34-42, Sur Orient, Barranquilla, Atlántico, Colombia",10.9517059,-74.78845989999999,"Carrera 14 #34-42, Sur Orient, Barranquilla, Atlántico, Colombia"
TIENDA ARA 0495 BOGOTA GRANJA SAN PABLO,BOGOTA,2979278,2018/06/28,ACTIVA,2025/03/20,2025,4.5758491,-74.1185308,"Carrera 14 L # 87-35 Sur, Bogotá, Cundinamarca, Colombia",4.5758491,-74.1185308,"Carrera 14 L # 87-35 Sur, Bogotá, Cundinamarca, Colombia"
TIENDA ARA 631 TURBO JESUS MORA,URABA,97675,2020/02/19,ACTIVA,2025/03/20,2025,8.094263,-76.72840529999999,"Carrera 14 N° 102-69 Imperio 0663, Turbo, Antioquia, Colombia",8.094263,-76.72840529999999,"Carrera 14 N° 102-69 Imperio 0663, Turbo, Antioquia, Colombia"
TIENDA ARA 0407 CAUCASIA ASOVIVIENDA,MEDELLIN PARA ANTIOQUIA,64776102,2017/11/30,ACTIVA,2025/03/19,2025,7.9774732,-75.20263709999999,"Carrera 20 con calle 6 A, Caucasia, Antioquia, Colombia",7.9774732,-75.20263709999999,"Carrera 20 con calle 6 A, Caucasia, Antioquia, Colombia"
TIENDA ARA 0295 QUIROGA CENTRAL,BOGOTA,2806533,2017/04/19,ACTIVA,2025/03/20,2025,4.581955499999999,-74.1184069,"Carrera 24, Cl 37 Sur # 35, Bogotá, Colombia",4.581955499999999,-74.1184069,"Carrera 24, Cl 37 Sur # 35, Bogotá, Colombia"
TIENDA ARA 1512 BOGOTÁ RAFAEL URIBE LOMAS,BOGOTA,3885070,2024/10/24,ACTIVA,2025/03/21,2025,4.581955499999999,-74.1184069,"Carrera 24, Cl 37 Sur # 35, Bogotá, Colombia",4.581955499999999,-74.1184069,"Carrera 24, Cl 37 Sur # 35, Bogotá, Colombia"
TIENDA ARA 0994 IBAGUE AMBALA,IBAGUE,345597,2022/06/13,ACTIVA,2025/03/21,2025,4.455162,-75.2021985,"Carrera 27 B No.67-14 Barrio, Los Mandarinos, Ibagué, Tolima, Colombia",4.455162,-75.2021985,"Carrera 27 B No.67-14 Barrio, Los Mandarinos, Ibagué, Tolima, Colombia"
TIENDA ARA 1004 CAUCASIA LAS GAVIOTAS,MEDELLIN PARA ANTIOQUIA,75436902,2022/08/19,ACTIVA,2025/03/19,2025,,,,,,
TIENDA ARA 0090 ANSERMA,MANIZALES,169321,2014/12/17,ACTIVA,2025/03/20,2025,5.242992,-75.78121399999999,"Cra. 3 #25-14, Anserma, Caldas, Colombia",5.242992,-75.78121399999999,"Cra. 3 #25-14, Anserma, Caldas, Colombia"
TIENDA ARA 1557 ANSERMA AV LIBERTADORES CRA 5,MANIZALES,243008,2025/02/26,ACTIVA,2025/02/26,2025,5.2313718,-75.7873153,"Carrera 4 # 10 - 30, Caldas, Anserma Viejo, Colombia",5.2313718,-75.7873153,"Carrera 4 # 10 - 30, Caldas, Anserma Viejo, Colombia"
TIENDA ARA 0205 SOACHA QUINTANARES,BOGOTA,2709500,2016/07/14,ACTIVA,2025/03/20,2025,4.5915172,-74.1933631,"Carrera 4 #5-2 a 5-186, Soacha, Cundinamarca, Colombia",4.5915172,-74.1933631,"Carrera 4 #5-2 a 5-186, Soacha, Cundinamarca, Colombia"
TIENDA ARA 1580 BARRANQUILLA ALAMEDA DEL RIO,BARRANQUILLA,902048,2024/10/22,ACTIVA,2025/03/21,2025,10.9994242,-74.8422954,"Carrera 43C, Nte. Centro Historico, Barranquilla, Atlántico, Colombia",10.9994242,-74.8422954,"Carrera 43C, Nte. Centro Historico, Barranquilla, Atlántico, Colombia"
TIENDA ARA 1181 NEIVA LA VICTORIA,HUILA,380681,2022/11/17,ACTIVA,2025/03/21,2025,4.6574998,-74.0708233,"Carrera 52 #23-15, Barrios Unidos, Neiva, Bogotá, Huila, Colombia",4.6574998,-74.0708233,"Carrera 52 #23-15, Barrios Unidos, Neiva, Bogotá, Huila, Colombia"
TIENDA ARA 1629 TOLIMA PURIFICACION CARRERA SEPTIMA,SUR Y ORIENTE DEL TOLIMA,128603,2025/03/17,ACTIVA,2025/03/17,2025,4.7437384,-74.084183,"Cra. 92 #147D-06, Suba, Bogotá, Cundinamarca, Colombia",4.7437384,-74.084183,"Cra. 92 #147D-06, Suba, Bogotá, Cundinamarca, Colombia"
TIENDA ARA 1280 BELLO PLAZA BELVERDE,MEDELLIN PARA ANTIOQUIA,76794102,2023/03/23,ACTIVA,2025/03/19,2025,6.3500789,-75.5694242,"Carrera 65B #70-50, San Gabriel, Bello, Antioquia, Colombia",6.3500789,-75.5694242,"Carrera 65B #70-50, San Gabriel, Bello, Antioquia, Colombia"
TIENDA ARA 0080 ROLDANILLO,CARTAGO,80681,2014/12/16,ACTIVA,2025/03/25,2025,4.7546993,-75.91718,"Cartago, Valle del Cauca, Colombia",4.7546993,-75.91718,"Cartago, Valle del Cauca, Colombia"
TIENDA ARA 0853 EL CERRITO EL PLACER CARRERA 8,BUGA,81100,2022/05/03,ACTIVA,2025/03/21,2025,3.6124161,-76.27245839999999,"Carrera 8 # 5 - 46, El Placer, El Cerrito, Valle del Cauca, Colombia",3.6124161,-76.27245839999999,"Carrera 8 # 5 - 46, El Placer, El Cerrito, Valle del Cauca, Colombia"
TIENDA ARA 0549 BOGOTA TINTALA,BOGOTA,3043774,2018/12/06,ACTIVA,2025/03/20,2025,4.6526084,-74.16004869999999,"Carrera 87B #6D - 10, Bogotá, Colombia",4.6526084,-74.16004869999999,"Carrera 87B #6D - 10, Bogotá, Colombia"
TIENDA ARA 1564 KENNEDY MALL CIUDAD TINTAL,BOGOTA,3873263,2024/09/23,ACTIVA,2025/03/21,2025,4.6526084,-74.16004869999999,"Carrera 87B #6D - 10, Bogotá, Colombia",4.6526084,-74.16004869999999,"Carrera 87B #6D - 10, Bogotá, Colombia"
TIENDA ARA 0447 BARRANQUILLA SANTUARIO,BARRANQUILLA,710681,2018/07/17,ACTIVA,2025/03/21,2025,10.9459244,-74.8062684,"Carrizal, Barranquilla, Atlántico, Colombia",10.9459244,-74.8062684,"Carrizal, Barranquilla, Atlántico, Colombia"
TIENDA ARA 0635 BARRANQUILLA CARRIZAL,BARRANQUILLA,828118,2022/01/21,ACTIVA,2025/03/21,2025,10.9459244,-74.8062684,"Carrizal, Barranquilla, Atlántico, Colombia",10.9459244,-74.8062684,"Carrizal, Barranquilla, Atlántico, Colombia"
TIENDA ARA 0174 CARTAGENA LA CAROLINA,CARTAGENA,36477702,2016/07/27,ACTIVA,2025/03/21,2025,10.3970954,-75.4614284,"Cartagena de Indias, Provincia de Cartagena, Bolívar, Colombia",10.3970954,-75.4614284,"Cartagena de Indias, Provincia de Cartagena, Bolívar, Colombia"
TIENDA ARA 0242 CARTAGENA VILLAS DE LA CANDELARIA,CARTAGENA,37996602,2017/06/30,ACTIVA,2025/03/21,2025,10.402498,-75.4605692,"Cartagena de Indias, Provincia de Cartagena, Bolívar, Colombia",10.402498,-75.4605692,"Cartagena de Indias, Provincia de Cartagena, Bolívar, Colombia"
TIENDA ARA 0574 CARTAGENA LA MARIA,CARTAGENA,47746402,2023/05/30,ACTIVA,2025/03/21,2025,10.4206538,-75.5199561,"Cartagena de Indias, Provincia de Cartagena, Bolívar, Colombia",10.4206538,-75.5199561,"Cartagena de Indias, Provincia de Cartagena, Bolívar, Colombia"
TIENDA ARA 0771 CARTAGENA COLOMBIATON,CARTAGENA,45464002,2021/06/12,ACTIVA,2025/03/21,2025,10.4177423,-75.4465997,"Cartagena de Indias, Provincia de Cartagena, Bolívar, Colombia",10.4177423,-75.4465997,"Cartagena de Indias, Provincia de Cartagena, Bolívar, Colombia"
TIENDA ARA 1057 EL PRADO CALLE 16 CARTAGO,CARTAGO,109037,2022/12/29,ACTIVA,2025/03/25,2025,4.7546993,-75.91718,"Cartago, Valle del Cauca, Colombia",4.7546993,-75.91718,"Cartago, Valle del Cauca, Colombia"
TIENDA ARA 0046 LA VICTORIA,CARTAGO,79811,2014/08/11,ACTIVA,2025/03/25,2025,4.750464700000001,-75.92485649999999,"Cra. 4, Cartago, Pereira, Valle del Cauca, Colombia",4.750464700000001,-75.92485649999999,"Cra. 4, Cartago, Pereira, Valle del Cauca, Colombia"
TIENDA ARA 0063 LA UNION PLAZA,CARTAGO,80175,2014/09/18,ACTIVA,2025/03/25,2025,4.750464700000001,-75.92485649999999,"Cra. 4, Cartago, Pereira, Valle del Cauca, Colombia",4.750464700000001,-75.92485649999999,"Cra. 4, Cartago, Pereira, Valle del Cauca, Colombia"
TIENDA ARA 0075 DOVIO,CARTAGO,80682,2014/12/16,ACTIVA,2025/03/25,2025,4.7546993,-75.91718,"Cartago, Valle del Cauca, Colombia",4.7546993,-75.91718,"Cartago, Valle del Cauca, Colombia"
TIENDA ARA 460 CARTAGO BOLIVAR,CARTAGO,92855,2018/06/15,ACTIVA,2025/03/25,2025,4.750464700000001,-75.92485649999999,"Cra. 4, Cartago, Pereira, Valle del Cauca, Colombia",4.750464700000001,-75.92485649999999,"Cra. 4, Cartago, Pereira, Valle del Cauca, Colombia"
TIENDA ARA 1032 MÁLAGA CENTRO CALLE 11,BUCARAMANGA,9000634293,2022/11/23,ACTIVA,2025/03/21,2025,6.6989396,-72.73339039999999,"Cl. 11 #8-14, Málaga, Santander, Colombia",6.6989396,-72.73339039999999,"Cl. 11 #8-14, Málaga, Santander, Colombia"
TIENDA ARA 1692 BOGOTÁ USAQUÉN CC PALATINO,BOGOTA,3942717,2025/03/28,ACTIVA,2025/03/28,2025,4.7173512,-74.0313718,"Cl. 140 # 7 C - 44, Usaquén, Bogotá, Cundinamarca, Colombia",4.7173512,-74.0313718,"Cl. 140 # 7 C - 44, Usaquén, Bogotá, Cundinamarca, Colombia"
TIENDA ARA 0348 VILLA DE LEYVA CENTRO,TUNJA,152155,2017/08/15,ACTIVA,2025/03/25,2025,5.6324904,-73.53404689999999,"Centro Comercial la villa, Villa de Leyva, Boyacá, Colombia",5.6324904,-73.53404689999999,"Centro Comercial la villa, Villa de Leyva, Boyacá, Colombia"
TIENDA ARA 1636 BOYACA VILLA DE LEYVA MALL LA VILLA,TUNJA,230862,2025/03/26,ACTIVA,2025/03/26,2025,5.6324904,-73.53404689999999,"Centro Comercial la villa, Villa de Leyva, Boyacá, Colombia",5.6324904,-73.53404689999999,"Centro Comercial la villa, Villa de Leyva, Boyacá, Colombia"
TIENDA ARA 1393 NEIVA COMUNEROS,HUILA,392902,2023/09/06,ACTIVA,2025/03/21,2025,2.9256273,-75.2918907,"Cerca de Nohora peluqueria, Cra. 2 #7-61, Neiva, Huila, Colombia",2.9256273,-75.2918907,"Cerca de Nohora peluqueria, Cra. 2 #7-61, Neiva, Huila, Colombia"
TIENDA ARA 0873 CERETE VENUS,MONTERIA,198288,2022/06/07,ACTIVA,2025/03/20,2025,8.887797599999999,-75.7968727,"Cereté, Córdoba, Colombia",8.887797599999999,-75.7968727,"Cereté, Córdoba, Colombia"
TIENDA ARA 1401 CIENAGA DE ORO EL CARMEN,MONTERIA,215881,2024/05/21,ACTIVA,2025/03/20,2025,8.875340699999999,-75.6161971,"Ciénaga de Oro, Córdoba, Colombia",8.875340699999999,-75.6161971,"Ciénaga de Oro, Córdoba, Colombia"
TIENDA ARA 0267 CIUDAD LATINA,BOGOTA,2760666,2016/12/12,ACTIVA,2025/03/20,2025,4.5839557,-74.1904263,"Ciudad Latina, Carrera 22 #1 B -37, Soacha, Cundinamarca, Colombia",4.5839557,-74.1904263,"Ciudad Latina, Carrera 22 #1 B -37, Soacha, Cundinamarca, Colombia"
TIENDA ARA 0886 BOGOTA SUBA SAN CAYETANO,BOGOTA,3462081,2021/12/13,ACTIVA,2025/03/20,2025,4.7287235,-74.0961473,"Cl 129c #98-12, Bogotá, Colombia",4.7287235,-74.0961473,"Cl 129c #98-12, Bogotá, Colombia"
TIENDA ARA 1091 CENTRO FONSECA LA GUAJIRA,LA GUAJIRA,174161,2022/10/31,ACTIVA,2025/03/21,2025,10.8882216,-72.8529286,"Cl 13 #19-07, Fonseca, La Guajira, Colombia",10.8882216,-72.8529286,"Cl 13 #19-07, Fonseca, La Guajira, Colombia"
TIENDA ARA 1298 FONSECA 15 DE DICIEMBRE,LA GUAJIRA,179242,2023/08/11,ACTIVA,2025/03/21,2025,,,,,,
TIENDA ARA 1508 VILLA RICA EL JARDIN CL 3,CAUCA,251432,2025/03/19,ACTIVA,2025/03/19,2025,4.7391021,-74.0479799,"Cl. 156 #N° 21B- 86, Bogotá, Colombia",4.7391021,-74.0479799,"Cl. 156 #N° 21B- 86, Bogotá, Colombia"
TIENDA ARA 1260 BOGOTA SUBA VILLAS DEL RINCON,BOGOTA,3669756,2023/04/20,ACTIVA,2025/03/20,2025,4.7323887,-74.090173,"Cl 132 #94c-38, Bogotá, Colombia",4.7323887,-74.090173,"Cl 132 #94c-38, Bogotá, Colombia"
TIENDA ARA 1150 VILLANUEVA CENTRO CALLE 14 GUAJIRA,LA GUAJIRA,175088,2023/01/12,ACTIVA,2025/03/21,2025,10.6051725,-72.9828189,"Cl 14 #863, Villanueva, La Guajira, Colombia",10.6051725,-72.9828189,"Cl 14 #863, Villanueva, La Guajira, Colombia"
TIENDA ARA 1409 BOGOTÁ USAQUÉN CAOBOS,BOGOTA,3840259,2024/07/03,ACTIVA,2025/03/20,2025,4.7290391,-74.03976329999999,"Cl 147 #14-68, Bogotá, Colombia",4.7290391,-74.03976329999999,"Cl 147 #14-68, Bogotá, Colombia"
TIENDA ARA 0834 CALI CALLE 18 PARCELACION PANCE,CALI,1131814,2021/10/11,ACTIVA,2025/03/20,2025,3.3314428,-76.5325666,"Cl 18 entre Kr 129 y, Cra. 127c #1, Cali, Valle del Cauca, Colombia",3.3314428,-76.5325666,"Cl 18 entre Kr 129 y, Cra. 127c #1, Cali, Valle del Cauca, Colombia"
TIENDA ARA 0166 SINCELEJO LA PAJUELA,SINCELEJO,93234,2016/08/16,ACTIVA,2025/03/21,2025,9.302572999999999,-75.39688989999999,"Cl 21 #16-06, Sincelejo, Sucre, Colombia",9.302572999999999,-75.39688989999999,"Cl 21 #16-06, Sincelejo, Sucre, Colombia"
TIENDA ARA 0980 NEIVA CANAIMA,HUILA,380660,2022/11/17,ACTIVA,2025/03/21,2025,2.9074673,-75.2709141,"Cl 21 S #28-36, Neiva, Huila, Colombia",2.9074673,-75.2709141,"Cl 21 S #28-36, Neiva, Huila, Colombia"
TIENDA ARA 0277 BOGOTA LAS NIEVES,BOGOTA,2780096,2017/02/13,ACTIVA,2025/03/20,2025,4.6088058,-74.0718914,"Cl 22 # 9 - 08, Bogotá, Colombia",4.6088058,-74.0718914,"Cl 22 # 9 - 08, Bogotá, Colombia"
TIENDA ARA 508 VILLA ROCIO,MONTERIA,168044,2018/11/26,ACTIVA,2025/03/20,2025,8.7337166,-75.8744584,"Cl 22 #26e-21, Montería, Córdoba, Colombia",8.7337166,-75.8744584,"Cl 22 #26e-21, Montería, Córdoba, Colombia"
TIENDA ARA 0676 TULUA AGUACLARA,TULUA,102154,2020/08/18,ACTIVA,2025/03/20,2025,4.091404499999999,-76.20611920000002,"Cl 25, Tuluá, Valle del Cauca, Colombia",4.091404499999999,-76.20611920000002,"Cl 25, Tuluá, Valle del Cauca, Colombia"
TIENDA ARA 0506 VILLAVICENCIO EL BARZAL,VILLAVICENCIO,336659,2018/08/03,ACTIVA,2025/03/20,2025,4.144447899999999,-73.6349248,"Cl 32 #33-83 a 33-1, Villavicencio, Meta, Colombia",4.144447899999999,-73.6349248,"Cl 32 #33-83 a 33-1, Villavicencio, Meta, Colombia"
TIENDA ARA 1364 MONTERIA PORTAL DE LA CANDELARIA,MONTERIA,215585,2024/05/08,ACTIVA,2025/03/20,2025,8.755877,-75.8671198,"Cl 37, Cl. 42a #3w- 116 37 #3w, Montería, Córdoba, Colombia",8.755877,-75.8671198,"Cl 37, Cl. 42a #3w- 116 37 #3w, Montería, Córdoba, Colombia"
TIENDA ARA 1537 MEDELLIN LA 70,MEDELLIN PARA ANTIOQUIA,80181302,2024/08/23,ACTIVA,2025/03/19,2025,6.2493739,-75.5882488,"Cl 44 #6978, Laureles - Estadio, Medellín, Laureles, Medellín, Antioquia, Colombia",6.2493739,-75.5882488,"Cl 44 #6978, Laureles - Estadio, Medellín, Laureles, Medellín, Antioquia, Colombia"
TIENDA ARA 1547 MEDELLIN LAURELES (BOLIVARIANA),MEDELLIN PARA ANTIOQUIA,81984002,2025/05/30,ACTIVA,2025/05/30,2025,6.2493739,-75.5882488,"Cl 44 #6978, Laureles - Estadio, Medellín, Laureles, Medellín, Antioquia, Colombia",6.2493739,-75.5882488,"Cl 44 #6978, Laureles - Estadio, Medellín, Laureles, Medellín, Antioquia, Colombia"
TIENDA ARA 0396 BARRANQUILLA 7 DE ABRIL,BARRANQUILLA,690887,2017/12/01,ACTIVA,2025/03/21,2025,10.9229967,-74.8145651,"Cl 51B #12 Sur-235 a 12 Sur-73, Barranquilla, Atlántico, Colombia",10.9229967,-74.8145651,"Cl 51B #12 Sur-235 a 12 Sur-73, Barranquilla, Atlántico, Colombia"
TIENDA ARA 0988 BARRANQUILLA CAYENAS,BARRANQUILLA,869665,2023/05/26,ACTIVA,2025/03/21,2025,10.9363698,-74.81020219999999,"Cl 51B #2b-16, Las Americas, Barranquilla, Atlántico, Colombia",10.9363698,-74.81020219999999,"Cl 51B #2b-16, Las Americas, Barranquilla, Atlántico, Colombia"
TIENDA ARA 1453 CALI MORICHAL,CALI,1200436,2023/10/02,ACTIVA,2025/03/20,2025,3.4044197,-76.5012502,"Cl 54 #41b-2 a 41b-52, Cali, Valle del Cauca, Colombia",3.4044197,-76.5012502,"Cl 54 #41b-2 a 41b-52, Cali, Valle del Cauca, Colombia"
TIENDA ARA 1653 BOGOTÁ TEUSAQUILLO CAMPÍN,BOGOTA,3968322,2025/05/29,ACTIVA,2025/05/29,2025,4.6509292,-74.0731699,"Cl 63 #24 63, Bogotá, Colombia",4.6509292,-74.0731699,"Cl 63 #24 63, Bogotá, Colombia"
TIENDA ARA 0360 RAMIRIQUI,TUNJA,165572,2018/11/26,ACTIVA,2025/03/25,2025,5.400170399999999,-73.33553789999999,"Cl 7 ##507, Ramiriquí, Boyacá, Colombia",5.400170399999999,-73.33553789999999,"Cl 7 ##507, Ramiriquí, Boyacá, Colombia"
TIENDA ARA 0227 PARQUE ENGATIVA,BOGOTA,2730161,2016/09/07,ACTIVA,2025/03/20,2025,4.6937321,-74.10298259999999,"Cl 72 # 81a, Bogotá, Colombia",4.6937321,-74.10298259999999,"Cl 72 # 81a, Bogotá, Colombia"
TIENDA ARA 0558 BOGOTA ALCAZARES,BOGOTA,3044927,2018/12/12,ACTIVA,2025/03/20,2025,4.6609218,-74.06436649999999,"Cl 72 #20b-37, Barrios Unidos, Bogotá, Colombia",4.6609218,-74.06436649999999,"Cl 72 #20b-37, Barrios Unidos, Bogotá, Colombia"
TIENDA ARA 1217 BOGOTA BARRIOS UNIDOS MODELO,BOGOTA,3610706,2022/11/25,ACTIVA,2025/03/20,2025,4.657502099999999,-74.0708269,"Cl. 66 #N° 24 - 24, Bogotá, Colombia",4.657502099999999,-74.0708269,"Cl. 66 #N° 24 - 24, Bogotá, Colombia"
TIENDA ARA 0810 BARRANQUILLA VILLA TAREL,BARRANQUILLA,862819,2023/02/28,ACTIVA,2025/03/21,2025,11.0063323,-74.7930488,"Cl 72 #65 - 228, Nte. Centro Historico, Barranquilla, Atlántico, Colombia",11.0063323,-74.7930488,"Cl 72 #65 - 228, Nte. Centro Historico, Barranquilla, Atlántico, Colombia"
TIENDA ARA 0210 BODEGA LAS FERIAS,BOGOTA,2730191,2016/09/07,ACTIVA,2025/03/20,2025,4.6821063,-74.0896143,"Cl 72 #69C-30, Bogotá, Colombia",4.6821063,-74.0896143,"Cl 72 #69C-30, Bogotá, Colombia"
TIENDA ARA 0489 BOGOTA LAS FERIAS OCCIDENTAL,BOGOTA,2976317,2018/06/21,ACTIVA,2025/03/20,2025,4.6821063,-74.0896143,"Cl 72 #69C-30, Bogotá, Colombia",4.6821063,-74.0896143,"Cl 72 #69C-30, Bogotá, Colombia"
TIENDA ARA 0896 USME SANTA LIBRADA,BOGOTA,3464218,2021/12/28,ACTIVA,2025/03/20,2025,4.5146397,-74.11510630000001,"Cl 75 Sur #12 - 19, Usme, Bogotá, Cundinamarca, Colombia",4.5146397,-74.11510630000001,"Cl 75 Sur #12 - 19, Usme, Bogotá, Cundinamarca, Colombia"
TIENDA ARA 1330 BOGOTA USME LA CABAÑA,BOGOTA,3649758,2023/03/08,ACTIVA,2025/03/20,2025,4.5146397,-74.11510630000001,"Cl 75 Sur #12 - 19, Usme, Bogotá, Cundinamarca, Colombia",4.5146397,-74.11510630000001,"Cl 75 Sur #12 - 19, Usme, Bogotá, Cundinamarca, Colombia"
TIENDA ARA 1645 BOGOTÁ USME LA ANDREA,BOGOTA,3968349,2025/05/29,ACTIVA,2025/05/29,2025,4.5123121,-74.1150972,"Av Caracas #76a-08 sur, Usme, Bogotá, Cundinamarca, Colombia",4.5123121,-74.1150972,"Av Caracas #76a-08 sur, Usme, Bogotá, Cundinamarca, Colombia"
TIENDA ARA 1232 ZIPAQUIRA TERRAPLEN,BOGOTA,3612124,2022/11/30,ACTIVA,2025/03/20,2025,5.027593500000001,-74.005932,"Cl 8 #3-46, Zipaquirá, Cundinamarca, Colombia",5.027593500000001,-74.005932,"Cl 8 #3-46, Zipaquirá, Cundinamarca, Colombia"
TIENDA ARA 1670 ZIPAQUIRÁ CLL 8 KR 31,BOGOTA,3967805,2025/05/28,ACTIVA,2025/05/28,2025,5.0248438,-73.98532120000002,"Cl 8 #31-15, Zipaquirá, Cundinamarca, Colombia",5.0248438,-73.98532120000002,"Cl 8 #31-15, Zipaquirá, Cundinamarca, Colombia"
TIENDA ARA 584 CARMEN DE APICALA URBANIZACION ARENITAS,SUR Y ORIENTE DEL TOLIMA,97928,2019/03/19,ACTIVA,2025/03/19,2025,,,,,,
TIENDA ARA 1358 CUCUTA CENTRO AV1,CUCUTA,465212,2024/09/27,ACTIVA,2025/03/21,2025,7.8877267,-72.4989895,"Cl. 10 #045, Cúcuta, Norte de Santander, Colombia",7.8877267,-72.4989895,"Cl. 10 #045, Cúcuta, Norte de Santander, Colombia"
TIENDA ARA 122 CHIPRE,MANIZALES,176074,2015/11/13,ACTIVA,2025/03/20,2025,5.0741987,-75.5252567,"Cl. 10 #12-21, Manizales, Caldas, Colombia",5.0741987,-75.5252567,"Cl. 10 #12-21, Manizales, Caldas, Colombia"
TIENDA ARA 657 TIERRALTA,MONTERIA,176165,2019/12/02,ACTIVA,2025/03/20,2025,8.1725915,-76.0603311,"Cl. 10 #16-84, Tierralta, Córdoba, Colombia",8.1725915,-76.0603311,"Cl. 10 #16-84, Tierralta, Córdoba, Colombia"
TIENDA ARA 1063 CÚCUTA SAN MIGUEL,CUCUTA,437193,2023/03/08,ACTIVA,2025/03/21,2025,7.884673299999999,-72.5163087,"Cl. 10 #1666, Br. Cundinamarca, Cúcuta, Norte de Santander, Colombia",7.884673299999999,-72.5163087,"Cl. 10 #1666, Br. Cundinamarca, Cúcuta, Norte de Santander, Colombia"
TIENDA ARA 0479 SOACHA DANUBIO,BOGOTA,3010255,2018/09/10,ACTIVA,2025/03/20,2025,4.589224,-74.22427549999999,"Cl. 10 #16A-15, Soacha, Cundinamarca, Colombia",4.589224,-74.22427549999999,"Cl. 10 #16A-15, Soacha, Cundinamarca, Colombia"
TIENDA ARA 0902 TIERRALTA 19 DE MARZO,MONTERIA,198992,2022/07/07,ACTIVA,2025/03/20,2025,8.1697136,-76.0637727,"Cl. 10 #20 2, Tierralta, Córdoba, Colombia",8.1697136,-76.0637727,"Cl. 10 #20 2, Tierralta, Córdoba, Colombia"
TIENDA ARA 0451 CAUCASIA CARACOLI,MEDELLIN PARA ANTIOQUIA,65257402,2018/02/20,ACTIVA,2025/03/19,2025,7.980902400000001,-75.1948431,"Cl. 10 #3-50 3-2 a, Caucasia, Antioquia, Colombia",7.980902400000001,-75.1948431,"Cl. 10 #3-50 3-2 a, Caucasia, Antioquia, Colombia"
TIENDA ARA 1678 MESITAS PARQUE,GIRARDOT,123462,2025/05/30,ACTIVA,2025/05/30,2025,,,,,,
TIENDA ARA 0051 NEIRA PLAZA,MANIZALES,172433,2015/05/21,ACTIVA,2025/03/20,2025,5.1672248,-75.5210123,"Cl. 10 #71 a 7-67, Neira, Caldas, Colombia",5.1672248,-75.5210123,"Cl. 10 #71 a 7-67, Neira, Caldas, Colombia"
TIENDA ARA 0759 CÚCUTA CENTRO,CUCUTA,395772,2021/06/01,ACTIVA,2025/03/21,2025,7.8864116,-72.507417,"Cl. 10 #8-37, Barrio Llano, Cúcuta, Norte de Santander, Colombia",7.8864116,-72.507417,"Cl. 10 #8-37, Barrio Llano, Cúcuta, Norte de Santander, Colombia"
TIENDA ARA 0775 CÚCUTA CENTRO,CUCUTA,404809,2021/10/08,ACTIVA,2025/03/21,2025,7.8864116,-72.507417,"Cl. 10 #8-37, Barrio Llano, Cúcuta, Norte de Santander, Colombia",7.8864116,-72.507417,"Cl. 10 #8-37, Barrio Llano, Cúcuta, Norte de Santander, Colombia"
TIENDA ARA 1414 CALI SANTA ROSA CALLE 10,CALI,1222928,2024/06/11,ACTIVA,2025/03/20,2025,3.448424,-76.53279669999999,"Cl. 10 #8-37, COMUNA 3, Cali, Valle del Cauca, Colombia",3.448424,-76.53279669999999,"Cl. 10 #8-37, COMUNA 3, Cali, Valle del Cauca, Colombia"
TIENDA ARA 0754 ARMENIA PROVIDENCIA,ARMENIA,253891,2021/08/13,ACTIVA,2025/03/21,2025,4.5507065,-75.660819,"Cl. 10 Nte. #16-16, Armenia, Quindío, Colombia",4.5507065,-75.660819,"Cl. 10 Nte. #16-16, Armenia, Quindío, Colombia"
TIENDA ARA 0217 BARRANQUILLA VILLA SANTOS,BARRANQUILLA,655086,2016/09/07,ACTIVA,2025/03/21,2025,11.0137184,-74.8361405,"Cl. 106 # 50 - 76, Riomar, Barranquilla, Atlántico, Colombia",11.0137184,-74.8361405,"Cl. 106 # 50 - 76, Riomar, Barranquilla, Atlántico, Colombia"
TIENDA ARA 1036 BOGOTA USAQUEN SAN PATRICIO 2,BOGOTA,3729253,2023/09/12,ACTIVA,2025/03/20,2025,4.6923344,-74.049634,"Cl. 106 #17A 74, Bogotá, Colombia",4.6923344,-74.049634,"Cl. 106 #17A 74, Bogotá, Colombia"
TIENDA ARA 201 SAN PATRICIO,BOGOTA,2708087,2016/07/11,ACTIVA,2025/03/20,2025,4.6923344,-74.049634,"Cl. 106 #17A 74, Bogotá, Colombia",4.6923344,-74.049634,"Cl. 106 #17A 74, Bogotá, Colombia"
TIENDA ARA 1601 CANDELARIA PLAZA,BARRANQUILLA,903138,2024/11/07,ACTIVA,2025/03/21,2025,10.4558506,-74.879649,"Cl. 10a #11a-70, Candelaria, Atlántico, Colombia",10.4558506,-74.879649,"Cl. 10a #11a-70, Candelaria, Atlántico, Colombia"
TIENDA ARA 0524 PALMAR DE VARELA,BARRANQUILLA,721483,2018/11/26,ACTIVA,2025/03/21,2025,10.742696,-74.7550998,"Cl. 11 # 6 - 03, Palmar de Varela, Atlántico, Colombia",10.742696,-74.7550998,"Cl. 11 # 6 - 03, Palmar de Varela, Atlántico, Colombia"
TIENDA ARA 0833 OCAÑA CENTRO CATEDRAL,OCANA,39892,2021/12/14,ACTIVA,2025/03/21,2025,8.2341804,-73.3536797,"Cl. 11 #11-28, Ocaña, Norte de Santander, Colombia",8.2341804,-73.3536797,"Cl. 11 #11-28, Ocaña, Norte de Santander, Colombia"
TIENDA ARA 1348 OCAÑA LA PRIMAVERA,OCANA,43646,2023/09/13,ACTIVA,2025/03/21,2025,8.257485899999999,-73.3597504,"Ocaña, Norte de Santander, Colombia",8.257485899999999,-73.3597504,"Ocaña, Norte de Santander, Colombia"
TIENDA ARA 0327 SOGAMOSO CALLE 11,SOGAMOSO,71918,2017/07/18,ACTIVA,2025/03/25,2025,5.7186902,-72.9356548,"Cl. 11 #19 - 85, Sogamoso, Boyacá, Colombia",5.7186902,-72.9356548,"Cl. 11 #19 - 85, Sogamoso, Boyacá, Colombia"
TIENDA ARA 0933 LA GUAJIRA BARRANCAS,LA GUAJIRA,174162,2022/10/31,ACTIVA,2025/03/21,2025,10.9558724,-72.7883063,"Cl. 11 #7, Cra. 2ª #7-148, Barrancas, La Guajira, Colombia",10.9558724,-72.7883063,"Cl. 11 #7, Cra. 2ª #7-148, Barrancas, La Guajira, Colombia"
TIENDA ARA 1325 FLORIDABLANCA CENTRO II CALLE 11,BUCARAMANGA,9000656472,2023/09/13,ACTIVA,2025/03/21,2025,7.058240899999999,-73.0841047,"Cl. 11 #8-17, Floridablanca, Santander, Colombia",7.058240899999999,-73.0841047,"Cl. 11 #8-17, Floridablanca, Santander, Colombia"
TIENDA ARA 0140 SABANAGRANDE,BARRANQUILLA,634412,2015/11/11,ACTIVA,2025/03/21,2025,10.7897129,-74.7580564,"Cl. 11 #85 7, Sabanagrande, Atlántico, Colombia",10.7897129,-74.7580564,"Cl. 11 #85 7, Sabanagrande, Atlántico, Colombia"
TIENDA ARA 0719 TAMESIS CENTRO,MEDELLIN PARA ANTIOQUIA,71349002,2020/12/09,ACTIVA,2025/03/19,2025,,,,,,
TIENDA ARA 0580 SOACHA DUCALES II,BOGOTA,3086138,2019/03/19,ACTIVA,2025/03/20,2025,4.5726053,-74.2327306,"Cl. 11 Sur #4c Sur-1 a, Cl. 4C Sur #15, Soacha, Cundinamarca, Colombia",4.5726053,-74.2327306,"Cl. 11 Sur #4c Sur-1 a, Cl. 4C Sur #15, Soacha, Cundinamarca, Colombia"
TIENDA ARA 1332 VALLEDUPAR GARUPAL,VALLEDUPAR,209041,2024/03/21,ACTIVA,2025/03/21,2025,10.4744131,-73.26446949999999,"Cl. 11, Cra. 19 D 1 #19d-91 a, La Elvira, Valledupar, Cesar, Colombia",10.4744131,-73.26446949999999,"Cl. 11, Cra. 19 D 1 #19d-91 a, La Elvira, Valledupar, Cesar, Colombia"
TIENDA ARA 0332 GALERAS,SINCELEJO,97647,2017/06/29,ACTIVA,2025/03/21,2025,9.316629599999999,-75.3925927,"Cra. 18 #55, Sincelejo, Sucre, Colombia",9.316629599999999,-75.3925927,"Cra. 18 #55, Sincelejo, Sucre, Colombia"
TIENDA ARA 0865 CALI MANUELA BELTRAN,CALI,1137473,2021/12/22,ACTIVA,2025/03/20,2025,3.4179698,-76.473668,"Cl. 112 #26n-46, Manuela Beltran, Cali, Valle del Cauca, Colombia",3.4179698,-76.473668,"Cl. 112 #26n-46, Manuela Beltran, Cali, Valle del Cauca, Colombia"
TIENDA ARA 0712 TURBO MANUELA BELTRÁN,URABA,102226,2021/02/04,ACTIVA,2025/03/20,2025,8.0987495,-76.7343199,"Cl. 115 #10-01, Turbo, Antioquia, Colombia",8.0987495,-76.7343199,"Cl. 115 #10-01, Turbo, Antioquia, Colombia"
TIENDA ARA 592 PUEBLO NUEVO,MONTERIA,174482,2019/09/03,ACTIVA,2025/03/20,2025,8.7567915,-75.900447,"K 12 W, Dg 35 de Vallejo #18, Montería, Córdoba, Colombia",8.7567915,-75.900447,"K 12 W, Dg 35 de Vallejo #18, Montería, Córdoba, Colombia"
TIENDA ARA 621 PUERTO SALGAR CENTRO,LA DORADA,55577,2019/10/03,ACTIVA,2025/03/20,2025,5.4639621,-74.65602559999999,"Cl. 12 #11-2 a 11-80, Cl. 12 #11-36, Puerto Salgar, Cundinamarca, Colombia",5.4639621,-74.65602559999999,"Cl. 12 #11-2 a 11-80, Cl. 12 #11-36, Puerto Salgar, Cundinamarca, Colombia"
TIENDA ARA 1086 CÚCUTA CLARET,CUCUTA,431057,2022/11/23,ACTIVA,2025/03/21,2025,7.919001499999999,-72.5208481,"Cl. 12 #114, Br. Mariano Ospina Pérez, Cúcuta, Norte de Santander, Colombia",7.919001499999999,-72.5208481,"Cl. 12 #114, Br. Mariano Ospina Pérez, Cúcuta, Norte de Santander, Colombia"
TIENDA ARA 1246 MAICAO CALLE 12,LA GUAJIRA,176510,2023/03/15,ACTIVA,2025/03/21,2025,11.3773571,-72.2407021,"Cl. 12 #13-58, Maicao, La Guajira, Colombia",11.3773571,-72.2407021,"Cl. 12 #13-58, Maicao, La Guajira, Colombia"
TIENDA ARA 0096 EL BOSQUE,MANIZALES,173424,2015/07/07,ACTIVA,2025/03/20,2025,5.0641604,-75.5239833,"Cl. 12 #2760, Manizales, Caldas, Colombia",5.0641604,-75.5239833,"Cl. 12 #2760, Manizales, Caldas, Colombia"
TIENDA ARA 0845 BOGOTA BAVARIA,BOGOTA,3460477,2021/12/03,ACTIVA,2025/03/20,2025,4.735252399999999,-74.0546751,"Cl. 152 #53-5, Suba, Bogotá, D.C, Bogotá, Colombia",4.735252399999999,-74.0546751,"Cl. 152 #53-5, Suba, Bogotá, D.C, Bogotá, Colombia"
TIENDA ARA 1376 CALI EL REMANSO CRA 26,CALI,1188576,2023/05/26,ACTIVA,2025/03/20,2025,,,,,,
TIENDA ARA 606 LOS GARZONES MONTERIA,MONTERIA,173290,2019/07/08,ACTIVA,2025/03/20,2025,8.8254127,-75.8391437,"Cl. 126 # 5 - 15, Montería, Córdoba, Colombia",8.8254127,-75.8391437,"Cl. 126 # 5 - 15, Montería, Córdoba, Colombia"
TIENDA ARA 1441 CALDAS CABECERA CALLE 128 SUR,ABURRA SUR,271093,2024/03/07,ACTIVA,2025/03/19,2025,6.092982699999999,-75.6369498,"Cl. 128 Sur, Caldas, Antioquia, Colombia",6.092982699999999,-75.6369498,"Cl. 128 Sur, Caldas, Antioquia, Colombia"
TIENDA ARA 0311 BOGOTA SANTANDER ANTONIO NARIÑO,BOGOTA,3004030,2018/08/27,CANCELADA,/  /,2018,4.6986808,-74.0515537,"Ac 116 #19a-41, Usaquén, Bogotá, Cundinamarca, Colombia",4.6986808,-74.0515537,"Ac 116 #19a-41, Usaquén, Bogotá, Cundinamarca, Colombia"
TIENDA ARA 0459 HONDA BARRIO BOGOTA,HONDA,63071,2018/04/17,ACTIVA,2025/03/21,2025,4.7348303,-74.054634,"Cl. 152 #53A- 05, Suba, Bogotá, Cundinamarca, Colombia",4.7348303,-74.054634,"Cl. 152 #53A- 05, Suba, Bogotá, Cundinamarca, Colombia"
TIENDA ARA 0688 BOGOTA SUBA CANODROMO,BOGOTA,3304120,2020/10/30,ACTIVA,2025/03/20,2025,4.7138951,-74.05406099999999,"Cl. 128b # 46-23, Suba, Bogotá, Cundinamarca, Colombia",4.7138951,-74.05406099999999,"Cl. 128b # 46-23, Suba, Bogotá, Cundinamarca, Colombia"
TIENDA ARA 0715 CUNDINAMARCA SAN BERNARDO,BOGOTA,3364009,2021/04/08,ACTIVA,2025/03/20,2025,4.1795289,-74.4226874,"Cl. 6 #5-2 a 5-98, San Bernardo, Cundinamarca, Colombia",4.1795289,-74.4226874,"Cl. 6 #5-2 a 5-98, San Bernardo, Cundinamarca, Colombia"
TIENDA ARA 1460 BOGOTÁ SUBA RINCÓN CALLE 128,BOGOTA,3790555,2024/03/04,ACTIVA,2025/03/20,2025,4.7348303,-74.054634,"Cl. 152 #53A- 05, Suba, Bogotá, Cundinamarca, Colombia",4.7348303,-74.054634,"Cl. 152 #53A- 05, Suba, Bogotá, Cundinamarca, Colombia"
TIENDA ARA 1604 BOGOTÁ SUBA BATÁN,BOGOTA,3939262,2025/03/20,ACTIVA,2025/03/20,2025,4.7138951,-74.05406099999999,"Cl. 128b # 46-23, Suba, Bogotá, Cundinamarca, Colombia",4.7138951,-74.05406099999999,"Cl. 128b # 46-23, Suba, Bogotá, Cundinamarca, Colombia"
TIENDA ARA 0575 BOGOTA PRADO PINZON,BOGOTA,3190207,2019/11/14,ACTIVA,2025/03/20,2025,4.7164044,-74.0601354,"Cl. 129 #53 - 84, Bogotá, Colombia",4.7164044,-74.0601354,"Cl. 129 #53 - 84, Bogotá, Colombia"
TIENDA ARA 0880 BOGOTA SUBA PRADO NORTE,BOGOTA,3462078,2021/12/13,ACTIVA,2025/03/20,2025,4.7164044,-74.0601354,"Cl. 129 #53 - 84, Bogotá, Colombia",4.7164044,-74.0601354,"Cl. 129 #53 - 84, Bogotá, Colombia"
TIENDA ARA 616 BOGOTA PRADO VERANIEGO,BOGOTA,3179218,2019/10/15,ACTIVA,2025/03/20,2025,4.7164044,-74.0601354,"Cl. 129 #53 - 84, Bogotá, Colombia",4.7164044,-74.0601354,"Cl. 129 #53 - 84, Bogotá, Colombia"
TIENDA ARA 0245 SAN VICTORINO,BOGOTA,2745372,2016/10/18,ACTIVA,2025/03/20,2025,4.602716399999999,-74.079105,"Cl. 13 # 13-13, Santa Fé, Bogotá, Cundinamarca, Colombia",4.602716399999999,-74.079105,"Cl. 13 # 13-13, Santa Fé, Bogotá, Cundinamarca, Colombia"
TIENDA ARA 0170 CHIA PARQUE OSPINA,BOGOTA,2708120,2016/07/11,ACTIVA,2025/03/20,2025,4.861941,-74.0588187,"Cl. 13 # 9-43, Chía, Cundinamarca, Colombia",4.861941,-74.0588187,"Cl. 13 # 9-43, Chía, Cundinamarca, Colombia"
TIENDA ARA 0306 SOGAMOSO SAN MARTÍN CENTRO,SOGAMOSO,71866,2017/07/13,ACTIVA,2025/03/25,2025,5.716148899999999,-72.9271304,"Cl. 13 #10 – 45/47, Sogamoso, Boyacá, Colombia",5.716148899999999,-72.9271304,"Cl. 13 #10 – 45/47, Sogamoso, Boyacá, Colombia"
TIENDA ARA 0423 BOYACA SOGAMOSO CALLE 13,SOGAMOSO,74215,2018/03/17,CANCELADA,2018/03/17,2018,5.716148899999999,-72.9271304,"Cl. 13 #10 – 45/47, Sogamoso, Boyacá, Colombia",5.716148899999999,-72.9271304,"Cl. 13 #10 – 45/47, Sogamoso, Boyacá, Colombia"
TIENDA ARA 0423 BOYACA SOGAMOSO CL 13,SOGAMOSO,74193,2018/03/15,ACTIVA,2025/03/25,2025,5.716148899999999,-72.9271304,"Cl. 13 #10 – 45/47, Sogamoso, Boyacá, Colombia",5.716148899999999,-72.9271304,"Cl. 13 #10 – 45/47, Sogamoso, Boyacá, Colombia"
TIENDA ARA 1064 BOYACA SOGAMOSO IWOKA,SOGAMOSO,91935,2022/12/02,ACTIVA,2025/03/25,2025,5.716148899999999,-72.9271304,"Cl. 13 #10 – 45/47, Sogamoso, Boyacá, Colombia",5.716148899999999,-72.9271304,"Cl. 13 #10 – 45/47, Sogamoso, Boyacá, Colombia"
TIENDA ARA 640 NOBSA CENTRO,SOGAMOSO,80837,2019/12/02,ACTIVA,2025/03/25,2025,5.769477800000001,-72.9398101,"Cra. 10 #5-26, Nobsa, Boyacá, Colombia",5.769477800000001,-72.9398101,"Cra. 10 #5-26, Nobsa, Boyacá, Colombia"
TIENDA ARA 1227 SANTA FE DE ANTIOQUIA BARRIO LA POLA,MEDELLIN PARA ANTIOQUIA,76118302,2022/11/30,ACTIVA,2025/03/19,2025,,,,,,
TIENDA ARA 1575 SANTA FE. LLANOS DE BOLIVAR,MEDELLIN PARA ANTIOQUIA,80813902,2024/12/09,ACTIVA,2025/03/19,2025,6.5615859,-75.829657,"Cl. 13 #15-22, Santa Fé de Antioquia, Antioquia, Colombia",6.5615859,-75.829657,"Cl. 13 #15-22, Santa Fé de Antioquia, Antioquia, Colombia"
TIENDA ARA 1099 RIOHACHA COQUIVACOA,LA GUAJIRA,173904,2022/10/14,ACTIVA,2025/03/21,2025,11.5433483,-72.9216836,"Cl. 13 #19-67 a 19-1, Riohacha, La Guajira, Colombia",11.5433483,-72.9216836,"Cl. 13 #19-67 a 19-1, Riohacha, La Guajira, Colombia"
TIENDA ARA 0693 CALI COLSEGUROS,CALI,1111089,2021/03/05,ACTIVA,2025/03/20,2025,3.4266909,-76.52885739999999,"Cl. 13 #31-42, Comuna 10, Cali, Valle del Cauca, Colombia",3.4266909,-76.52885739999999,"Cl. 13 #31-42, Comuna 10, Cali, Valle del Cauca, Colombia"
TIENDA ARA 1483 SOACHA PARQUE,SOACHA,10000155,2025/05/08,ACTIVA,2025/05/08,2025,4.5810296,-74.21908379999999,"Cl. 13 #45, Soacha, Cundinamarca, Colombia",4.5810296,-74.21908379999999,"Cl. 13 #45, Soacha, Cundinamarca, Colombia"
TI4ENDA ARA 1650 BOGOTÁ SUBA PORTAL NORTE,BOGOTA,3968334,2025/05/29,ACTIVA,2025/05/29,2025,4.7348303,-74.054634,"Cl. 152 #53A- 05, Suba, Bogotá, Cundinamarca, Colombia",4.7348303,-74.054634,"Cl. 152 #53A- 05, Suba, Bogotá, Cundinamarca, Colombia"
TIENDA ARA 1644 BOGOTÁ ANTONIO NARIÑO VALVANERA,BOGOTA,3967432,2025/05/27,ACTIVA,2025/05/27,2025,4.5927521,-74.1026318,"Cl. 13 Sur #24H - 12, Bogotá, Colombia",4.5927521,-74.1026318,"Cl. 13 Sur #24H - 12, Bogotá, Colombia"
TIENDA ARA 0157 TURBACO,CARTAGENA,36090702,2016/05/04,ACTIVA,2025/03/21,2025,10.3277724,-75.4205575,"Cl. 13, Turbaco, Bolívar, Colombia",10.3277724,-75.4205575,"Cl. 13, Turbaco, Bolívar, Colombia"
TIENDA ARA 1090 TURBACO CANARIO,CARTAGENA,47258402,2022/10/31,ACTIVA,2025/03/21,2025,10.3277724,-75.4205575,"Cl. 13, Turbaco, Bolívar, Colombia",10.3277724,-75.4205575,"Cl. 13, Turbaco, Bolívar, Colombia"
TIENDA ARA 1442 TURBACO EL RODEO,CARTAGENA,48797402,2024/09/16,ACTIVA,2025/03/21,2025,10.3277724,-75.4205575,"Cl. 13, Turbaco, Bolívar, Colombia",10.3277724,-75.4205575,"Cl. 13, Turbaco, Bolívar, Colombia"
TIENDA ARA 1451 TURBACO COUNTRY,CARTAGENA,48737302,2024/08/21,ACTIVA,2025/03/21,2025,10.3277724,-75.4205575,"Cl. 13, Turbaco, Bolívar, Colombia",10.3277724,-75.4205575,"Cl. 13, Turbaco, Bolívar, Colombia"
TIENDA ARA 0395 BOGOTA EDIFICIO SAN PEDRO,BOGOTA,2888615,2017/11/04,ACTIVA,2025/03/20,2025,4.6117321,-74.1326897,"Av. 1 de Mayo #68h-14, Bogotá, Colombia",4.6117321,-74.1326897,"Av. 1 de Mayo #68h-14, Bogotá, Colombia"
TIENDA ARA 1113 BOGOTA SUBA LISBOA,BOGOTA,3604482,2022/11/04,ACTIVA,2025/03/20,2025,4.7419948,-74.1255652,"Cl. 132d #154c16, Bogotá, Colombia",4.7419948,-74.1255652,"Cl. 132d #154c16, Bogotá, Colombia"
TIENDA ARA 0184 ARBOLEDA SAN GABRIEL,BOGOTA,2708117,2016/07/11,ACTIVA,2025/03/20,2025,4.6176526,-74.1320377,"Cra. 70 # 21-15 Sur, Bogotá, Colombia",4.6176526,-74.1320377,"Cra. 70 # 21-15 Sur, Bogotá, Colombia"
TIENDA ARA 0237 MADERAS LOS DOS PUENTES,BOGOTA,2737564,2016/09/27,ACTIVA,2025/03/20,2025,4.7348303,-74.054634,"Cl. 152 #53A- 05, Suba, Bogotá, Cundinamarca, Colombia",4.7348303,-74.054634,"Cl. 152 #53A- 05, Suba, Bogotá, Cundinamarca, Colombia"
TIENDA ARA 0745 CALI QUINTAS DE DON SIMON,CALI,1111199,2021/03/05,ACTIVA,2025/03/20,2025,3.3889183,-76.5326646,"Cl. 14 # 75-68, Comuna 17, Cali, Valle del Cauca, Colombia",3.3889183,-76.5326646,"Cl. 14 # 75-68, Comuna 17, Cali, Valle del Cauca, Colombia"
TIENDA ARA 1592 CALI PRIMERO DE MAYO CALLE 14,CALI,1254559,2025/05/27,ACTIVA,2025/05/27,2025,3.3889183,-76.5326646,"Cl. 14 # 75-68, Comuna 17, Cali, Valle del Cauca, Colombia",3.3889183,-76.5326646,"Cl. 14 # 75-68, Comuna 17, Cali, Valle del Cauca, Colombia"
TIENDA ARA 1028 CARTAGO REPUBLICA DE FRANCIA,CARTAGO,108581,2022/10/11,ACTIVA,2025/03/25,2025,4.7369327,-75.9146181,"Cl. 14 #16-98 a 16-212, Cartago, Valle del Cauca, Colombia",4.7369327,-75.9146181,"Cl. 14 #16-98 a 16-212, Cartago, Valle del Cauca, Colombia"
TIENDA ARA 0932 MAICAO MAREYGUA,LA GUAJIRA,171229,2022/06/09,ACTIVA,2025/03/21,2025,11.3758989,-72.25299919999999,"Cl. 14 #27-33, Maicao, La Guajira, Colombia",11.3758989,-72.25299919999999,"Cl. 14 #27-33, Maicao, La Guajira, Colombia"
TIENDA ARA 0682 MONTERIA EL EDEN,MONTERIA,190123,2021/08/02,ACTIVA,2025/03/20,2025,8.753713,-75.8768128,"Cl. 14 #34-36, Montería, Córdoba, Colombia",8.753713,-75.8768128,"Cl. 14 #34-36, Montería, Córdoba, Colombia"
TIENDA ARA 0299 SAHAGUN PLAZA,MONTERIA,155803,2017/05/10,ACTIVA,2025/03/20,2025,8.939201299999999,-75.44376590000002,"Cra. 14 #19A-6, Sahagún, Córdoba, Colombia",8.939201299999999,-75.44376590000002,"Cra. 14 #19A-6, Sahagún, Córdoba, Colombia"
TIENDA ARA 565 SAHAGUN SAN LUIS,MONTERIA,176342,2019/12/16,ACTIVA,2025/03/20,2025,8.939201299999999,-75.44376590000002,"Cra. 14 #19A-6, Sahagún, Córdoba, Colombia",8.939201299999999,-75.44376590000002,"Cra. 14 #19A-6, Sahagún, Córdoba, Colombia"
TIENDA ARA 0250 BELMIRA,BOGOTA,2746827,2016/10/21,ACTIVA,2025/03/20,2025,4.7173512,-74.0313718,"Cl. 140 # 7 C - 44, Usaquén, Bogotá, Cundinamarca, Colombia",4.7173512,-74.0313718,"Cl. 140 # 7 C - 44, Usaquén, Bogotá, Cundinamarca, Colombia"
TIENDA ARA 0244 AURES DOS,BOGOTA,2745360,2016/10/18,ACTIVA,2025/03/20,2025,4.7458371,-74.097061,"Cl. 142 #104 - 60, Suba, Bogotá, Cundinamarca, Colombia",4.7458371,-74.097061,"Cl. 142 #104 - 60, Suba, Bogotá, Cundinamarca, Colombia"
TIENDA ARA 1198 TOLIMA IBAGUE LOS TUNJOS,IBAGUE,352427,2022/11/30,ACTIVA,2025/03/21,2025,4.4032806,-75.1470717,"Cl. 143 #51-11 SUR, Ibagué, Tolima, Colombia",4.4032806,-75.1470717,"Cl. 143 #51-11 SUR, Ibagué, Tolima, Colombia"
TIENDA ARA 1674 CAJICÁ MILLA DE ORO,BOGOTA,3997616,2025/08/08,ACTIVA,2025/08/08,2025,,,,,,
TIENDA ARA 0786 COTORRA-CORDOBA,MONTERIA,190638,2021/08/19,ACTIVA,2025/03/20,2025,8.7498192,-75.8764803,"Montería, Córdoba, Colombia",8.7498192,-75.8764803,"Montería, Córdoba, Colombia"
TIENDA ARA 1447 VILLAVICENCIO MARACOS,VILLAVICENCIO,456051,2024/03/26,ACTIVA,2025/03/21,2025,4.135699199999999,-73.6172557,"Cl. 15 #15a-76, Villavicencio, Meta, Colombia",4.135699199999999,-73.6172557,"Cl. 15 #15a-76, Villavicencio, Meta, Colombia"
TIENDA ARA 617 EL ESTERO VILLAVICENCIO,VILLAVICENCIO,355423,2019/07/24,ACTIVA,2025/03/20,2025,4.135699199999999,-73.6172557,"Cl. 15 #15a-76, Villavicencio, Meta, Colombia",4.135699199999999,-73.6172557,"Cl. 15 #15a-76, Villavicencio, Meta, Colombia"
TIENDA ARA 0811 RIOHACHA LOS OLIVOS,LA GUAJIRA,167264,2021/11/23,ACTIVA,2025/03/20,2025,11.5309807,-72.9183599,"Cl. 15 #27-76, Riohacha, La Guajira, Colombia",11.5309807,-72.9183599,"Cl. 15 #27-76, Riohacha, La Guajira, Colombia"
TIENDA ARA 0730 DOSQUEBRADAS LA MACARENA,DOSQUEBRADAS,60500,2020/10/15,ACTIVA,2025/03/20,2025,4.826299199999999,-75.6874955,"Cl. 15 #8A-05, Dosquebradas, Risaralda, Colombia",4.826299199999999,-75.6874955,"Cl. 15 #8A-05, Dosquebradas, Risaralda, Colombia"
TIENDA ARA 1646 BOGOTA SUBA MAZUREN,BOGOTA,3941642,2025/03/27,ACTIVA,2025/03/27,2025,4.735252399999999,-74.0546751,"Cl. 152 #53-5, Suba, Bogotá, D.C, Bogotá, Colombia",4.735252399999999,-74.0546751,"Cl. 152 #53-5, Suba, Bogotá, D.C, Bogotá, Colombia"
TIENDA ARA 0187 TABIO CENTRO,BOGOTA,2708092,2016/07/11,ACTIVA,2025/03/20,2025,4.7348303,-74.054634,"Cl. 152 #53A- 05, Suba, Bogotá, Cundinamarca, Colombia",4.7348303,-74.054634,"Cl. 152 #53A- 05, Suba, Bogotá, Cundinamarca, Colombia"
TIENDA ARA 0229 USATAMA RESERVADO,BOGOTA,2737576,2016/09/27,ACTIVA,2025/03/20,2025,4.622738,-74.0842595,"Ave Cra 30 #22c - 32, Los Mártires, Bogotá, Cundinamarca, Colombia",4.622738,-74.0842595,"Ave Cra 30 #22c - 32, Los Mártires, Bogotá, Cundinamarca, Colombia"
TIENDA ARA 0247 NUEVO 54,BOGOTA,2745366,2016/10/18,ACTIVA,2025/03/20,2025,4.7348303,-74.054634,"Cl. 152 #53A- 05, Suba, Bogotá, Cundinamarca, Colombia",4.7348303,-74.054634,"Cl. 152 #53A- 05, Suba, Bogotá, Cundinamarca, Colombia"
TIENDA ARA 0248 POTOSI,BOGOTA,2745363,2016/10/18,ACTIVA,2025/03/20,2025,4.7348303,-74.054634,"Cl. 152 #53A- 05, Suba, Bogotá, Cundinamarca, Colombia",4.7348303,-74.054634,"Cl. 152 #53A- 05, Suba, Bogotá, Cundinamarca, Colombia"
TIENDA ARA 0252 CITY U,BOGOTA,2746824,2016/10/21,ACTIVA,2025/03/20,2025,4.7348303,-74.054634,"Cl. 152 #53A- 05, Suba, Bogotá, Cundinamarca, Colombia",4.7348303,-74.054634,"Cl. 152 #53A- 05, Suba, Bogotá, Cundinamarca, Colombia"
TIENDA ARA 0283 PARQUEADERO CARRERA 100,BOGOTA,2780101,2017/02/13,ACTIVA,2025/03/20,2025,4.6851973,-74.0499842,"Ac 100 # 17 - 13, Bogotá, Colombia",4.6851973,-74.0499842,"Ac 100 # 17 - 13, Bogotá, Colombia"
TIENDA ARA 0326 MARIQUITA CR 4,HONDA,60871,2017/08/16,ACTIVA,2025/03/21,2025,5.1995376,-74.74441519999999,"Cl. 9 #N° 19 - 39, Honda, Tolima, Colombia",5.1995376,-74.74441519999999,"Cl. 9 #N° 19 - 39, Honda, Tolima, Colombia"
TIENDA ARA 0373 LERIDA CALLE 8,HONDA,61939,2017/12/01,ACTIVA,2025/03/21,2025,5.1995376,-74.74441519999999,"Cl. 9 #N° 19 - 39, Honda, Tolima, Colombia",5.1995376,-74.74441519999999,"Cl. 9 #N° 19 - 39, Honda, Tolima, Colombia"
TIENDA ARA 0434 BOGOTA VERACRUZ CR 10,BOGOTA,2934456,2018/03/16,ACTIVA,2025/03/20,2025,4.6036709,-74.07551959999999,"Cra. 10 # 15-54, Bogotá, Colombia",4.6036709,-74.07551959999999,"Cra. 10 # 15-54, Bogotá, Colombia"
TIENDA ARA 0677 BOGOTÁ SAGRADO CORAZÓN,BOGOTA,3205520,2020/01/20,ACTIVA,2025/03/20,2025,4.735252399999999,-74.0546751,"Cl. 152 #53-5, Suba, Bogotá, D.C, Bogotá, Colombia",4.735252399999999,-74.0546751,"Cl. 152 #53-5, Suba, Bogotá, D.C, Bogotá, Colombia"
TIENDA ARA 1274 CHIA FAGUA,BOGOTA,3655054,2023/03/21,ACTIVA,2025/03/20,2025,4.8774903,-74.0647046,"VWGP+X4, Chía, Cundinamarca, Colombia",4.8774903,-74.0647046,"VWGP+X4, Chía, Cundinamarca, Colombia"
TIENDA ARA 1367 BOGOTA SUBA PORTALES NORTE,BOGOTA,3741344,2023/10/11,ACTIVA,2025/03/20,2025,4.7348303,-74.054634,"Cl. 152 #53A- 05, Suba, Bogotá, Cundinamarca, Colombia",4.7348303,-74.054634,"Cl. 152 #53A- 05, Suba, Bogotá, Cundinamarca, Colombia"
TIENDA ARA 1444 BOGOTA SUBA JAVA,BOGOTA,3741335,2023/10/11,ACTIVA,2025/03/20,2025,4.7348303,-74.054634,"Cl. 152 #53A- 05, Suba, Bogotá, Cundinamarca, Colombia",4.7348303,-74.054634,"Cl. 152 #53A- 05, Suba, Bogotá, Cundinamarca, Colombia"
TIENDA ARA 1476 BOGOTA USAQUEN CEDRO GOLF,BOGOTA,3867072,2024/09/06,ACTIVA,2025/03/20,2025,4.7300646,-74.0293118,"Cl. 153 #60, Bogotá, Colombia",4.7300646,-74.0293118,"Cl. 153 #60, Bogotá, Colombia"
TIENDA ARA 0394 BOGOTA VILLA MAGDALA,BOGOTA,2879918,2017/10/11,ACTIVA,2025/03/20,2025,4.7391021,-74.0479799,"Cl. 156 #N° 21B- 86, Bogotá, Colombia",4.7391021,-74.0479799,"Cl. 156 #N° 21B- 86, Bogotá, Colombia"
TIENDA ARA 1115 CÚCUTA PIZARRO,CUCUTA,431078,2022/11/23,ACTIVA,2025/03/21,2025,7.915745399999999,-72.5155142,"Cl. 16 #102, Barrio La Laguna, Cúcuta, Norte de Santander, Colombia",7.915745399999999,-72.5155142,"Cl. 16 #102, Barrio La Laguna, Cúcuta, Norte de Santander, Colombia"
TIENDA ARA 0780 VALLEDUPAR LAS FLORES,VALLEDUPAR,183475,2021/08/12,ACTIVA,2025/03/21,2025,10.4677187,-73.2603383,"Cl. 16 #19c2, La Elvira, Valledupar, Cesar, Colombia",10.4677187,-73.2603383,"Cl. 16 #19c2, La Elvira, Valledupar, Cesar, Colombia"
TIENDA ARA 0790 MAGANGUE LAS DELICIAS,MAGANGUE,50470,2021/09/16,ACTIVA,2025/03/20,2025,9.2574119,-74.7734566,"Cl. 16 #35-34, Magangué, Bolívar, Colombia",9.2574119,-74.7734566,"Cl. 16 #35-34, Magangué, Bolívar, Colombia"
BODEGA DEL CANASTO PARAGUACHON TRONCAL DEL CARIBE,LA GUAJIRA,174323,2022/11/09,ACTIVA,2025/03/21,2025,11.3814129,-72.23575029999999,"Cl. 16 #7-66, Maicao, La Guajira, Colombia",11.3814129,-72.23575029999999,"Cl. 16 #7-66, Maicao, La Guajira, Colombia"
TIENDA ARA 1425 BOGOTA USAQUEN ORQUIDEAS 161,BOGOTA,3730904,2023/09/14,ACTIVA,2025/03/20,2025,4.7397357,-74.0378582,"Cl. 161 #15-24 B, Usaquén, Bogotá, Colombia",4.7397357,-74.0378582,"Cl. 161 #15-24 B, Usaquén, Bogotá, Colombia"
TIENDA ARA 1357 BOGOTA USAQUEN SAN CRISTOBAL 1,BOGOTA,3752096,2023/11/14,ACTIVA,2025/03/20,2025,4.7375025,-74.0248201,"Cl. 162 #7b-42, Bogotá, Colombia",4.7375025,-74.0248201,"Cl. 162 #7b-42, Bogotá, Colombia"
TIENDA ARA 1492 BOGOTA USAQUEN LA MARIPOSA,BOGOTA,3814183,2024/04/26,ACTIVA,2025/03/21,2025,4.7376988,-74.0220598,"Cl. 163a, Bogotá, Colombia",4.7376988,-74.0220598,"Cl. 163a, Bogotá, Colombia"
TIENDA ARA 0454 BOGOTA TOBERIN,BOGOTA,2936542,2018/03/21,ACTIVA,2025/03/20,2025,4.7469106,-74.04611,"Cl. 166 # 22 - 41, Bogotá, Colombia",4.7469106,-74.04611,"Cl. 166 # 22 - 41, Bogotá, Colombia"
TIENDA ARA 0485 VILLAPINZON CENTRO,BOGOTA,3006653,2018/09/03,ACTIVA,2025/03/20,2025,4.747118,-74.048846,"Cl. 166 #46-53, Bogotá, Colombia",4.747118,-74.048846,"Cl. 166 #46-53, Bogotá, Colombia"
TIENDA ARA 1214 CUNDINAMARCA SILVANIA CENTRO,BOGOTA,3615964,2022/12/16,ACTIVA,2025/03/20,2025,4.4034571,-74.38623,"Cl. 9 #4-30, Silvania, Cundinamarca, Colombia",4.4034571,-74.38623,"Cl. 9 #4-30, Silvania, Cundinamarca, Colombia"
TIENDA ARA 1431 CALI GRANADA CL 12 N,CALI,1247795,2025/03/17,ACTIVA,2025/03/17,2025,4.747118,-74.048846,"Cl. 166 #46-53, Bogotá, Colombia",4.747118,-74.048846,"Cl. 166 #46-53, Bogotá, Colombia"
TIENDA ARA 1527 BOGOTÁ SUBA GRANADA,BOGOTA,3824568,2024/05/23,ACTIVA,2025/03/21,2025,4.747118,-74.048846,"Cl. 166 #46-53, Bogotá, Colombia",4.747118,-74.048846,"Cl. 166 #46-53, Bogotá, Colombia"
TIENDA ARA 0909 CARTAGO MARISCAL ROBLEDO,CARTAGO,107331,2022/06/07,ACTIVA,2025/03/25,2025,4.7442058,-75.9200376,"Cl. 16c #10-50, Cartago, Pereira, Risaralda, Colombia",4.7442058,-75.9200376,"Cl. 16c #10-50, Cartago, Pereira, Risaralda, Colombia"
TIENDA ARA 1490 BOGOTÁ FONTIBÓN EL REFUGIO CARRERA 120,BOGOTA,3824582,2024/05/23,ACTIVA,2025/03/20,2025,4.682136,-74.1541531,"Cl. 17 #114 - 12 Local 1 y 2, Fontibón, Macarena, Bogotá, Colombia",4.682136,-74.1541531,"Cl. 17 #114 - 12 Local 1 y 2, Fontibón, Macarena, Bogotá, Colombia"
TIENDA ARA 1652 BOGOTÁ FONTIBÓN BELÉN,BOGOTA,3953099,2025/04/23,ACTIVA,2025/04/23,2025,4.682136,-74.1541531,"Cl. 17 #114 - 12 Local 1 y 2, Fontibón, Macarena, Bogotá, Colombia",4.682136,-74.1541531,"Cl. 17 #114 - 12 Local 1 y 2, Fontibón, Macarena, Bogotá, Colombia"
TIENDA ARA 1392 CUCUTA AGUAS CALIENTES,CUCUTA,454761,2024/02/22,ACTIVA,2025/03/21,2025,7.886201100000001,-72.47296440000001,"Cl. 17 #16-57, Cúcuta, Norte de Santander, Colombia",7.886201100000001,-72.47296440000001,"Cl. 17 #16-57, Cúcuta, Norte de Santander, Colombia"
TIENDA ARA 0337 BARANOA CENTRO,BARRANQUILLA,677996,2017/06/27,ACTIVA,2025/03/21,2025,10.796008,-74.9153316,"Cl. 17 #18 - 02, Baranoa, Atlántico, Colombia",10.796008,-74.9153316,"Cl. 17 #18 - 02, Baranoa, Atlántico, Colombia"
TIENDA ARA 1308 MAICAO SAN MARTIN CALLE 17,LA GUAJIRA,177923,2023/05/18,ACTIVA,2025/03/21,2025,11.3804942,-72.2459057,"Cl. 17 #19-54, Maicao, La Guajira, Colombia",11.3804942,-72.2459057,"Cl. 17 #19-54, Maicao, La Guajira, Colombia"
TIENDA ARA 0934 PUERTO TEJADA,CAUCA,227444,2022/10/14,ACTIVA,2025/03/20,2025,3.229956,-76.42024099999999,"Cl. 17 #20-23, Puerto Tejada, Cauca, Colombia",3.229956,-76.42024099999999,"Cl. 17 #20-23, Puerto Tejada, Cauca, Colombia"
TIENDA ARA 0265 BARRANQUILLA REBOLO,BARRANQUILLA,659964,2016/11/08,ACTIVA,2025/03/21,2025,10.9710263,-74.7746325,"Sur Orient, Barranquilla, Atlántico, Colombia",10.9710263,-74.7746325,"Sur Orient, Barranquilla, Atlántico, Colombia"
TIENDA ARA 0345 COPEY CENTRO,VALLEDUPAR,145733,2017/06/29,ACTIVA,2025/03/21,2025,10.4554012,-73.2576358,"Valledupar, Cesar, Colombia",10.4554012,-73.2576358,"Valledupar, Cesar, Colombia"
TIENDA ARA 0908 CHIRIGUANA CENTRO,VALLEDUPAR,193240,2022/08/05,ACTIVA,2025/03/21,2025,10.4731409,-73.24524699999999,"Cl. 17 #8-45, Valledupar, Cesar, Colombia",10.4731409,-73.24524699999999,"Cl. 17 #8-45, Valledupar, Cesar, Colombia"
